province,city,name,address
北京市,北京市,星巴克咖啡,呼家楼商务中心1层1号
北京市,北京市,星巴克(大兴龙湖时代天街店),永兴路7号院1号楼北京龙湖大兴天街F1层L1-59
北京市,北京市,星巴克(马坡鲁能乐活广场店),马坡镇和宜园1号马坡鲁能乐活广场1层101
北京市,北京市,星巴克(滨河路店),密云华润万象汇1层
北京市,北京市,星巴克(常通路1店),常通路1号院西区1号楼1层8号、2层8号
北京市,北京市,星巴克(酒仙桥路4店),酒仙桥路6号院号2号楼B座101-1号
北京市,北京市,星巴克(京顺路店),京顺路111号比如世界1层05号
北京市,北京市,星巴克(国贸四店),建国门外大街1号国际贸易中心商城B1层SB126-SB127号
北京市,北京市,星巴克(旧宫万科店),旧宫地铁站旁北京住总万科广场F1层L1001-L1002号单元
北京市,北京市,星巴克(东三环中路店),东三环中路63号富力大厦1层148单元
北京市,北京市,星巴克(北辰东路2店),北辰东路8号16号楼1层101单元
北京市,北京市,星巴克(大栅栏店),大栅栏街道煤市街弓字胡同10号
北京市,北京市,星巴克(龙山东路店),龙山东路2号院新锐百货1号楼1层3单元
北京市,北京市,星巴克(九棵树西路店),九棵树西路80号北京通州阳光新生活广场1层8A单元
北京市,北京市,星巴克(华贸店),建国路79号2层L217-L218单元
北京市,北京市,星巴克(国展天虹店),左家庄北里58号楼天虹百货1层1037号
北京市,北京市,星巴克(国贸2店),建国门外大街国贸商城二层的NL205号铺位
北京市,北京市,星巴克(中关村大街海龙大厦店),中关村大街1号海龙大厦1号楼1层F100号
北京市,北京市,星巴克(酒仙桥路2店),酒仙桥2号院内11所39号楼
北京市,北京市,星巴克(光华路2店),光华路1号9号楼1层120室
北京市,北京市,星巴克(冠城大厦店),太阳宫中路12号冠城大厦1层
北京市,北京市,星巴克(中粮置地广场店),安定门外大街208号中粮置地广场高塔1层1层-8
北京市,北京市,星巴克(万科时代中心店),朝阳路十里堡甲3号院甲1号楼1层
北京市,北京市,星巴克(北京石榴中心店),榴乡路88号24号楼1层102
北京市,北京市,星巴克(北京京汇大厦店),朝阳区建国路乙118号1-105号单元
北京市,北京市,星巴克(颐堤港中心2店),酒仙桥路18号颐堤港商场LG-36&LG-38单元
北京市,北京市,星巴克(南竹杆店),南竹杆胡同2号1幢B1层1-123-1-126
北京市,北京市,星巴克(华夏幸福创新中心店),汽车博物馆西路8号院华夏幸福创新中心A座1层
北京市,北京市,星巴克(湖景东路店),湖景东路9、11号新奥购物中心地B1层B1-101
北京市,北京市,星巴克(利星行二期店),广顺南大街8号院号1号楼
北京市,北京市,星巴克(西铁营店),西铁营中路1号万达广场F1层1032
北京市,北京市,星巴克(光华路1店),光华路15号1号楼亿利生态广场1层
北京市,北京市,星巴克(金星西路店),黄村镇金星西路3号绿地缤纷城北区1F层1F-07B
北京市,北京市,星巴克(东北旺西路3店),西北旺东路10号院东区5号楼互联网创新中心1层
北京市,北京市,星巴克(欣宁大街店),欣宁街15号北京荟聚西红门购物中心L1层1-01-28-R
北京市,北京市,星巴克(金贸大厦店),西直门外大街18号楼2单元101内7号
北京市,北京市,星巴克(三里屯店),三里屯路19号10号楼10-1-5-10-1-6
北京市,北京市,星巴克(金地中心店),建国路91号金地广场2层L201
北京市,北京市,星巴克(北四环东路Ⅱ店),北四环东路9号四元桥家乐福1层1-36a单元
北京市,北京市,星巴克(蓝色港湾圣拉娜店),朝阳公园路6号院蓝色港湾国际商区1层
北京市,北京市,星巴克(西环广场2期店),西直门外大街1号西区B1-45-47A号
北京市,北京市,星巴克(华宇时尚店),中关村南大街2号数码大厦B座华宇时尚购物中心1层
北京市,北京市,星巴克(芳草地大厦店),东大桥路9号北京侨福芳草地D座1层
北京市,北京市,星巴克(祥云东方苑店),临空经济核心区安泰大街9号院10号楼102号
北京市,北京市,星巴克(东北旺西路1店),东北旺西路8号4号楼1层101-01
北京市,北京市,星巴克(新东安店),王府井大街138号新东安广场B1层B111-B112号
北京市,北京市,星巴克(复兴路店),复兴路51号凯德晶品购物中心F1层西侧1-6-7
北京市,北京市,星巴克(建国路店),建国路88号SOHO现代城C座801单元1-2层
北京市,北京市,星巴克(北京王府井店),王府井大街255号王府井百货1层西北角(近王府井步行街)
北京市,北京市,星巴克(工体北路1店),工人体育场北路13号北京世茂百货1层E103
北京市,北京市,星巴克(北辰东路3店),北辰东路8号16号楼1层108单元
北京市,北京市,星巴克(财富购物中心店),东三环中路7号财富中心1期写字楼1层E103(近京广桥)
北京市,北京市,星巴克(丽都店),将台路6号丽都广场1层
北京市,北京市,星巴克(朝阳万达广场店),建国路93号院A座万达广场东区新世界彩旋百货1层
北京市,北京市,星巴克(汉威国际广场1店),南四环西路186号1区1号楼
北京市,北京市,星巴克(赛特奥特莱斯店),香江北路28号北京赛特奥莱F2层2-023
北京市,北京市,星巴克(世贸天阶2店),光华路9号世贸天阶南街B1层B152号
北京市,北京市,星巴克(常通路2店),常通路1号院龙湖长楹天街购物中心东区4F层东区-4F-27
北京市,北京市,星巴克(同济南路店),亦庄经济技术开发区同济南路1号院
北京市,北京市,星巴克(政通南路店),通政南路2号院1号楼龙湖房山天街1层1室
北京市,北京市,星巴克(SK大厦店),建国门外大街甲6号1幢SK大厦2层
北京市,北京市,星巴克(远洋未来汇影院店),慈云寺北里209号209号楼远洋未来汇购物中心2层
北京市,北京市,星巴克(酒仙桥路1店),酒仙桥路12号乐天玛特超市1层LJ02-50单元
北京市,北京市,星巴克(大族溢彩城2店),荣华南路2号院大族广场T2栋3层影院旁
北京市,北京市,星巴克(泰禾店),新源大街30号1号楼1层1088-1090号
北京市,北京市,星巴克(西单北大街2店),西单北大街133号西单君太百货2层
北京市,北京市,星巴克(阜安路店),望京东园1区120号2-6层101内1层1F-19a-19b
北京市,北京市,星巴克(学院南路店),海淀学院南路62号院中关村资本大厦1层
北京市,北京市,星巴克(五彩城2店),清河中街66号院华润五彩城购物中心东区4层
北京市,北京市,星巴克(鼎好电子大厦店),海淀大街3号鼎好电子大厦1层
北京市,北京市,星巴克(上地西路店),上地西路6号联想科技园会议楼西楼1层
北京市,北京市,星巴克(麒麟社店),望京街4号11号楼1层
北京市,北京市,星巴克(飘亮阳光广场店),安立路68号飘亮广场1层
北京市,北京市,星巴克(灯市口天客隆店),灯市口大街33号天客隆1层
北京市,北京市,星巴克(东三环北路第三咖啡店),东三环北路38号院1号楼1层101内7室
北京市,北京市,星巴克咖啡(万达店),府前西街1号院1号楼怀柔区万达广场一层星巴克
北京市,北京市,星巴克咖啡(首钢园区店),石景山路68号晾水池东路(三高炉北侧)
北京市,北京市,星巴克咖啡(中友店),西单北大街汉光百货1层
北京市,北京市,星巴克咖啡(西单北大街店),西单北大街110号巴黎老佛爷百货F2层L2-2-23号
北京市,北京市,星巴克咖啡(新中关店),中关村大街19号gate新中关购物中心F1层L128A
北京市,北京市,星巴克咖啡(北京君太百货),西单北大街131号西单大悦城2层33号
北京市,北京市,星巴克咖啡(中航技广场店),市经济技术开发区荣华南路15号院1号楼101-011室
北京市,北京市,星巴克咖啡(翠微广场店),复兴路29号翠微百货翠微店B座1F层110
北京市,北京市,星巴克咖啡(凯德MALL.望京),广顺北大街33号凯德MALL望京L1层01-28
北京市,北京市,星巴克咖啡(大悦城西单店),西单北大街131号大悦城西单店F1层101-XZL号
北京市,北京市,星巴克咖啡(悦盛路店),长阳镇悦盛路6号院首创奥特莱斯F1层F1-B06
北京市,北京市,星巴克咖啡(远大路金源燕莎1店),远大路1号世纪金源购物中心1层1016号
北京市,北京市,星巴克咖啡(顺义隆华店),新顺南大街11号隆华购物中心1层2单元
北京市,北京市,星巴克咖啡(方庄通润店),方庄芳古园1区28号楼1层
北京市,北京市,星巴克咖啡(护国寺街店),护国寺街85号11号楼1层F1-3单元
北京市,北京市,星巴克咖啡(望京华彩店),广顺北大街16号院3号楼望京华彩商业中心一层A150单元
北京市,北京市,星巴克咖啡(京通罗斯福广场),九棵树中街9号京通罗斯福广场1F层111-112
北京市,北京市,星巴克咖啡(长阳绿地店),天星街1号院7号楼绿地缤纷城F1层
北京市,北京市,星巴克咖啡(搜秀购物广场店),崇文门外大街40号搜秀城1层
北京市,北京市,星巴克咖啡(北京东三环南路店),东三环南路1号佳龙大厦101
北京市,北京市,星巴克咖啡(清河店),清河嘉园东区甲1号
北京市,北京市,星巴克咖啡(万达广场通州店),新华西街58号通州万达广场1层1057号
北京市,北京市,星巴克咖啡(方恒国际店),阜通东大街6号院3号楼1层1-101
北京市,北京市,星巴克咖啡(天虹百货手帕口店),广安门外大街168号天虹百货商场1层101-1号
北京市,北京市,星巴克咖啡(赛特购物中心店),建国门外大街22号赛特购物中心B1层
北京市,北京市,星巴克咖啡(东三环乐成店),东三环中路22号乐成1层(双井桥东北角)
北京市,北京市,星巴克咖啡(永旺店),北清路1号院1号楼永旺国际商城购物中心1层120号
北京市,北京市,星巴克咖啡(北京泰康国际大厦店),武定侯街2号2号楼泰康国际大厦1层101-102单元
北京市,北京市,星巴克咖啡(华冠购物中心店),北关西路14号华冠购物中心F1层
北京市,北京市,星巴克咖啡(北京上地三街咖啡店),上地三街9号金隅嘉华大厦B座1层
北京市,北京市,星巴克咖啡(中关村时代广场店),中关村大街15-9号F1R101、F2R201
北京市,北京市,星巴克咖啡(建外SOHO店),东三环中路39号建外SOHO5号别墅1户
北京市,北京市,星巴克咖啡(北京天坛东路店),天坛东路46号红桥市场1层001单元
北京市,北京市,星巴克咖啡(文化园东路店),文化园东路6号亦庄创意生活广场F1层
北京市,北京市,星巴克咖啡(东方东路店),东方东路19号外交办公大楼1-2层
北京市,北京市,星巴克咖啡(中粮广场店),建国门内大街8号北京中粮广场C座G130-132
北京市,北京市,星巴克咖啡(鹏景阁店),望京湖光中街1号鹏景阁1层
北京市,北京市,星巴克咖啡(北京站),毛家湾胡同甲13号北京站F2层
北京市,北京市,星巴克咖啡(万达广场),石景山路乙18号万达广场1F层120
北京市,北京市,星巴克咖啡(万达广场),丰科路与五圈路交汇处(地铁9号线丰台科技园站C口)万达广场F1层1056
北京市,北京市,星巴克咖啡(金街店),王府井大街301号新燕莎金街购物中心1层MF105-1-2
北京市,北京市,星巴克咖啡(银座百货),东直门外大街48号银座百货L3层L3-23
北京市,北京市,星巴克咖啡(富卓店),宣武门外大街28号富卓大厦1层
北京市,北京市,星巴克咖啡(未来中心店),北七家镇英才南一街3号院1号楼103
北京市,北京市,星巴克咖啡(五道口购物中心店),成府路28号五道口购物中心1层101-10B号、2层201-09号
北京市,北京市,星巴克咖啡(龙域万科店),回龙观街道龙域中心A座1层
北京市,北京市,星巴克咖啡(北京百荣世贸商城店),永定门外大街甲101号百荣天海国际商贸城附近
北京市,北京市,星巴克咖啡(北京久敬庄路咖啡店),世界之花D区1层
北京市,北京市,星巴克咖啡(丽泽桥恒泰店),丰台北路18号院恒泰广场1层L1-19-20
北京市,北京市,星巴克咖啡(枫蓝国际中心店),西直门北大街32号院1号楼1层106-2
北京市,北京市,星巴克咖啡(北京亚运村华堂店),北京市朝阳区北四环东路108号千鹤家园5号楼F1-1001单元
北京市,北京市,星巴克咖啡(北京大族溢彩城店),荣华南路2号院8号楼1层F1-37号
北京市,北京市,星巴克咖啡(北京兴业银行咖啡店),朝阳门北大街20号兴业银行大厦1层
北京市,北京市,星巴克咖啡(北京大兴天键广场店),康庄东巷与枣园路交叉口东50米
北京市,北京市,星巴克咖啡(博雅CC店),生命科学园路4号院4号楼1层102
北京市,北京市,星巴克咖啡(安定路店),安定路5号院6号楼L104-1号
北京市,北京市,星巴克咖啡(金源燕莎二店),远大路1号北京燕莎友谊商城金源店B1层
北京市,北京市,星巴克咖啡(文化园西路店),经济技术开发区文化园西路6号院17号楼一层101-1单元
北京市,北京市,星巴克咖啡(金融街中心店),金融大家甲9号金融街中心1-101
北京市,北京市,星巴克咖啡(阜通东大街二店),阜通东大街1号院6号楼1层望京SOHO中心T3
北京市,北京市,星巴克咖啡(永定路咖啡店),永定路88号楼1层88-8室13/14号、2层88-10室16/17号
北京市,北京市,星巴克咖啡(畅春园店),颐和园路8号畅春园
北京市,北京市,星巴克咖啡(花园闸路店),紫檀大厦1层
北京市,北京市,星巴克咖啡(亦庄朝林广场店),荣华东路19号朝林广场A座一层
北京市,北京市,星巴克咖啡(乐多港店),城南街道南口路29号乐多港奥特莱斯购物中心1F层L1028
北京市,北京市,星巴克咖啡(杏石口咖啡店),杏石口路西杉创意园一区4号楼一层107-1号
北京市,北京市,星巴克咖啡(北京科学院南路店),科学院南路6号融科资讯中心B座1层019单元
北京市,北京市,星巴克咖啡(金宝汇店),金宝街88号金宝汇112号商铺1层
北京市,北京市,星巴克咖啡(望京东路店),望京东园四区6号楼北望金辉大厦1层105单元
北京市,北京市,星巴克咖啡(3号航站楼D区),首都国际机场中心广场东侧3号航站楼D区F2层W8
北京市,北京市,星巴克咖啡(机场2店),首都机场路1号航站楼F1层
北京市,北京市,星巴克咖啡(金汇路店),金汇路世界城商业街9号1层W111单元
北京市,北京市,星巴克咖啡(北京南站7店),永定门外大街北京南站交通枢纽出发层2层
北京市,北京市,星巴克咖啡(南站6店),永外车站路12号北京南站B1层
北京市,北京市,星巴克咖啡(望京东园店),绿地中心c座1层
北京市,北京市,星巴克咖啡(德胜国际中心店),德胜门外大街85号德胜国际中心B座1层102号
北京市,北京市,星巴克咖啡(北京朝外悠唐店),三丰北里2号楼悠唐购物中心F1层F1-03、F1-30-1
北京市,北京市,星巴克咖啡(鼎好店),中关村大街1号海龙大厦1号楼1层F100号铺位
北京市,北京市,星巴克咖啡(和谐广场店),莲宝中路西侧万丰路68号和谐广场1层
北京市,北京市,星巴克咖啡(3号航站楼C区),首都国际机场中心广场东侧3号航站楼C区4F层
北京市,北京市,星巴克咖啡(西小口路店),西小口路66号中关村东升科技园B区6号楼C座1层101室
北京市,北京市,星巴克咖啡(盈科中心店),工人体育场北路甲2号裙房1层103A单元、2层202A-203A单元
北京市,北京市,星巴克咖啡(家乐福店),立汤路186号龙德广场家乐福2层
北京市,北京市,星巴克咖啡(诚盈中心店),来广营西路诚盈中心3号楼1层
北京市,北京市,星巴克咖啡(梦秀商场店),望京西路41号地上1层1-3、1-6
北京市,北京市,星巴克咖啡(北京鲁谷远洋店),玉泉路59号院2号燕保大厦1层A001单元
北京市,北京市,星巴克咖啡(卓展二店),复兴路69号卓展购物中心5层近耀莱国际影城
北京市,北京市,星巴克咖啡(银泰百货大红门店),大红门西路26号11号商业楼首层L1-1单元
北京市,北京市,星巴克咖啡(建国路第二咖店),建国路112号惠普大厦1层
北京市,北京市,星巴克咖啡(北京清河营南街店),清河营南街7号院4号楼北苑华贸城1层126-127
北京市,北京市,星巴克咖啡(朝阳大悦城店),朝阳北路101号朝阳大悦城1层2号
北京市,北京市,星巴克咖啡(北京上地东路店),上地东路1号院7号楼环洋大厦1层东101
北京市,北京市,星巴克咖啡(工体北路2店),工体北路8号院三里屯SOHO1号商场1层1-118室
北京市,北京市,星巴克咖啡(北京万博苑店),万博苑7号楼王府井购物中心1层(右安门桥)
北京市,北京市,星巴克咖啡(北京陈家营西路店),陈家营西路3号院23号楼1层101-2单元
北京市,北京市,星巴克咖啡(霄云路二店),霄云路38号现代汽车大厦1层
北京市,北京市,星巴克咖啡(丰北路咖啡店),丰北路甲79号楼华堂商场1层1-001单元
北京市,北京市,星巴克咖啡(丰葆路店),丰葆路永旺梦乐城1层
北京市,北京市,星巴克咖啡(五彩城店),清河中街68号华润五彩城西区1层L101号
北京市,北京市,星巴克咖啡(北京新族大厦店),建国门外大街丙12号宝钢大厦
北京市,北京市,星巴克咖啡(北京金隅嘉品店),东坝中路金隅嘉品mall1层
北京市,北京市,星巴克咖啡(北京黄平路咖啡店),黄平路19号院1号楼B单元101-2室
北京市,北京市,星巴克咖啡(北京东三环北店),东三环北路27号嘉铭中心大厦A座B1层024号
北京市,北京市,星巴克咖啡(北京西大望路第一店),西大望路15号外企大厦B座1层
北京市,北京市,星巴克咖啡(北京复兴门内店),复兴门内大街28号凯晨世贸中心西座大堂
北京市,北京市,星巴克咖啡(北京东方广场东店),东长安街1号东方广场B1层
北京市,北京市,星巴克咖啡(南四环西路咖啡店),南四环西路188号1区2号楼总部广场B座1层
北京市,北京市,星巴克咖啡(北京顺义丽苑街咖啡店),天竺镇丽苑街15号27号楼102-103单元
北京市,北京市,星巴克咖啡(3号航站楼C区),首都国际机场中心广场东侧3号航站楼C区3F层
北京市,北京市,星巴克咖啡(朝阳门SOHO店),南竹杆胡同1号朝阳门SOHOB1-123号
北京市,北京市,星巴克咖啡(宏福路店),西红门欣旺北街8号鸿坤广场F1层
北京市,北京市,星巴克咖啡(古北咖啡店),古北口镇司马台村国际休闲旅游度假区第1层101单元(售票大厅内)
北京市,北京市,星巴克咖啡(国瑞店),崇文门外大街18号国瑞购物中心B2层
北京市,北京市,星巴克咖啡(北京霄云路咖啡店),霄云路甲26号海航万豪酒店1层
北京市,北京市,星巴克咖啡(北京新世界店),崇文门外大街3-5号新世界百货崇文店综合馆F1层
北京市,北京市,星巴克咖啡(欧陆广场店),裕祥路99号1层l105-l106单元
北京市,北京市,星巴克咖啡(百盛购物中心复兴门店北楼),复兴门内大街101号百盛购物中心复兴门店北楼F1层
北京市,北京市,星巴克咖啡(北京七圣中街咖啡店),七圣中街12号院北京爱琴海购物中心F1层
北京市,北京市,星巴克咖啡(翠微百货大成路店),大成南里3区13号翠微百货1层、B1
北京市,北京市,星巴克咖啡(北京雍和大厦店),安定门东大街28号雍和大厦1层
北京市,北京市,星巴克咖啡(北京西站),莲花池东路118号北京西站通廊7-1号
北京市,北京市,星巴克咖啡(北京翠微路咖啡店),翠微路12号凯德Mall1层101-06/44/K12B号
北京市,北京市,星巴克咖啡(光耀东方商场店),羊坊店路18号光耀东方广场1层103单元
北京市,北京市,星巴克咖啡(中关村南大街店),中关村南大街18号北京国际大厦C座01-101单元
北京市,北京市,星巴克咖啡(阜石路店),阜石路300号喜隆多新国际购物中心F1层
北京市,北京市,星巴克咖啡(惠新东街咖啡店),惠新东街4号3号楼1层101单元
北京市,北京市,星巴克咖啡(东直门店),东直门南大街3号国华投资1层01单元
北京市,北京市,星巴克咖啡(复兴门外店),复兴门外大街A2中化大厦1层
北京市,北京市,星巴克咖啡(成寿寺路店),南三环东路成寿寺路2号新业广场1层A129
北京市,北京市,星巴克咖啡(北京三里屯北区店),三里屯路11号院B1层NLG-32A单元
北京市,北京市,星巴克咖啡(北京首体南路咖啡店),主语国际4号楼1层
北京市,北京市,星巴克咖啡(北京国航大厦店),霄云路36号国航大厦A座1层1号
北京市,北京市,星巴克咖啡(北京新源南路咖啡店),新源南路1号(都汇天地购物中心B1层B18单元)
北京市,北京市,星巴克咖啡(首都国际机场2店),机场西路北京首都国际机场2号航站楼F1层
北京市,北京市,星巴克咖啡(五棵松卓展1店),复兴路69号3号楼卓展购物中心1层
北京市,北京市,星巴克咖啡(中海国际中心店),平安里西大街28号中海国际大厦1层6-7单元
北京市,北京市,星巴克咖啡(北苑店),红军营南路天畅园7号楼1层108号(近天乐园)
北京市,北京市,星巴克咖啡(腾达大厦店),西直门外大街168号腾达大厦2层210号
北京市,北京市,星巴克咖啡(北京西大望路温特莱店),西大望路1号温特莱中心1层
北京市,北京市,星巴克咖啡(北京南锣鼓巷咖啡店),南锣鼓巷20号
北京市,北京市,星巴克咖啡(万通中心店),金汇路世界城商业街9号楼1层W111单元
北京市,北京市,星巴克咖啡(华贸二店),建国路87号华贸中心19号楼1层102单元
北京市,北京市,星巴克咖啡(太平桥大街店),太平桥大街18号丰融国际2层203室
北京市,北京市,星巴克咖啡(北辰西路店),北辰西路8号3号楼B座北辰世纪中心首层109单元
北京市,北京市,星巴克咖啡(北京龙湖天街店),颐和园206号龙湖星悦荟L1-01-03号(近西苑地铁C2口)
北京市,北京市,星巴克咖啡(北京建威大厦店),南礼士路66号建威大厦1层
北京市,北京市,星巴克咖啡(金宝大厦店),金宝街89号金宝大厦写字楼1层4号
北京市,北京市,星巴克咖啡(北京霞光里店),东三环北路霞光里18号佳程广场A座3层
北京市,北京市,星巴克咖啡(丰联店),朝阳门外大街18号丰联广场F1层
北京市,北京市,星巴克咖啡(北京凯恒店),朝阳门内大街2号凯恒中心B座1层4单元
北京市,北京市,星巴克咖啡(北京前门大街店),前门大街1-1号
北京市,北京市,星巴克咖啡(世茂大厦店),建国路甲92号世茂大厦1层102单元
北京市,北京市,星巴克咖啡(北京远洋天地店),东四环中路56号远洋国际中心A座1层109室
北京市,北京市,星巴克咖啡(北京荣祥广场店),日祥广场809号
北京市,北京市,星巴克咖啡(北京海润店),将台路乙2号院海润国际公寓1层
北京市,北京市,星巴克咖啡(东方新天地),东长安街1号北京东方广场东方新天地商场平台层P-W18-10号
北京市,北京市,星巴克咖啡(北京新闻大厦店),建国门内大街26号新闻大厦1层
北京市,北京市,星巴克咖啡(北京大恒科技大厦店),苏州街3号大恒科技大厦1层
北京市,北京市,星巴克咖啡(蓝色港湾第二咖啡店),朝阳公园路6号院蓝色港湾国际商区2F层
北京市,北京市,星巴克咖啡(西城远洋大厦店),复兴门内大街158号远洋大厦1层G03A
北京市,北京市,星巴克咖啡(北京LG大厦店),建国门外大街乙12号北京双子座大厦1层L118
北京市,北京市,星巴克咖啡(北京新族大厦店),日坛路6号新族大厦首层1B
北京市,北京市,星巴克咖啡(北京亮马河大厦店),东三环北路8号亮马河大厦1层
北京市,北京市,星巴克咖啡(金树街店),金城坊街金融街公寓F座9-11号
北京市,北京市,星巴克咖啡(贵友大厦店),建国门外大街甲5号(贵友大厦东侧)
北京市,北京市,星巴克咖啡(庄胜崇光店),宣武门外大街12号庄胜崇光百货新馆B1层
北京市,北京市,星巴克咖啡(北京金码大厦店),学清路甲38号金码大厦A座1层
北京市,北京市,星巴克咖啡(北京大学医学部店),学院路38号北京大学医学部产业楼1层
北京市,北京市,星巴克咖啡(北京世东国际店),广渠路18号世东国际1号楼1层105-106单元
北京市,北京市,星巴克咖啡(新世界百货崇文店青春馆),崇文门外大街5号北京新世界商场青春馆B1层010009B
北京市,北京市,星巴克咖啡(来福士),东直门南大街1-1号来福士F2层L2-20
北京市,北京市,星巴克咖啡(花乡奥莱村店),南四环西路76号花乡奥莱物业2号楼1层02111
北京市,北京市,星巴克咖啡(东北旺第二咖啡店),东北旺西路8号中关村软件园23号楼孵化加速器楼1层
北京市,北京市,星巴克咖啡(祥云东方苑二店),空港街道安泰大街6号院11号楼107
北京市,北京市,星巴克咖啡(远大路金源燕莎2店),远大路1号世纪金源购物中心东区B1层
北京市,北京市,星巴克咖啡(南站3店),永外车站路12号北京南站B1层
北京市,北京市,星巴克咖啡(北京南站第1咖啡店),永外车站路12号北京南站F2层
北京市,北京市,星巴克咖啡(北京南站第2咖啡店),永外车站路12号北京南站B1层
北京市,北京市,星巴克咖啡(望京东园二店),望京东路保利国际广场T1座1层101单元
北京市,北京市,星巴克咖啡(北京万达广场2店),建国路93号万达广场B座万达影院3层
北京市,北京市,星巴克咖啡(资和信百货店),西四环南路1号资和信百货商场1层-1024 (看丹桥南侧)
北京市,北京市,星巴克咖啡(北京永定门店),永定门西滨河路8号院7楼中海地产广场101东塔2单元
北京市,北京市,星巴克咖啡(北京环球金融中心店),东三环中路一号环球金融中心1层W102
北京市,北京市,星巴克咖啡(贵友百货通州店),云景东路1号贵友百货(通州店)F1层
北京市,北京市,星巴克咖啡(首都机场T2店),T2航站楼国际隔离区2层
北京市,北京市,星巴克咖啡(北京南站第5咖啡店),永外车站路12号北京南站F1层
北京市,北京市,星巴克咖啡(瑞士公寓店),工人体育场北路66号瑞士广场E座1层103、2层202
北京市,北京市,星巴克咖啡(燕莎奥特莱斯C座),东四环南路9号北京燕莎奥特莱斯购物中心C座1层1018号
北京市,北京市,星巴克咖啡(北京英蓝国际店),金融大街7号英蓝国际金融中心1层F111-F112单元
北京市,北京市,星巴克咖啡(3号航站楼E区),首都国际机场中心广场东侧3号航站楼E区2层
北京市,北京市,星巴克咖啡(汇欣大厦店),[]
北京市,北京市,星巴克咖啡(北京威新国际大厦店),中关村东路1号清华科技园搜狐大厦1层
北京市,北京市,星巴克咖啡(槐房西路店),南苑西路39号槐房万达广场1层1083号
北京市,北京市,星巴克咖啡(北京嘉盛SOHO中心店),东三环北路甲19号嘉盛中心1层
北京市,北京市,星巴克咖啡(望京店),广顺南大街16号1号楼北京新世界利莹百货首层010760A
北京市,北京市,星巴克咖啡(大族广场二店),亦庄荣华南路大族广场T2三层
北京市,北京市,星巴克咖啡(威斯汀店),东三环北路7号威斯汀酒店1层
北京市,北京市,星巴克咖啡(国贸三期店),西大望路1号温特莱写字楼B座17层
北京市,北京市,星巴克咖啡(昌平悦荟万科店),南环路悦荟万科广场1层
北京市,北京市,星巴克咖啡(三里屯SOHO店),工人体育场北路8号三里屯SOHOF1
北京市,北京市,星巴克咖啡(国门智慧城店),山姆会员店北侧
北京市,北京市,星巴克咖啡(北京安贞环贸1店),北三环东路36号环球贸易中心2号楼C座-5单元
北京市,北京市,星巴克咖啡(科技财富中心店),学清路8号科技财富中心A座1层A101B号
北京市,北京市,星巴克咖啡(2号航站楼),首都机场路2号航站楼F2层
北京市,北京市,星巴克咖啡(北京中关村亿世界店),中关村大街11号中关村e世界A座1楼(近海淀东一街)
北京市,北京市,星巴克咖啡(颐堤港店),酒仙桥路18号颐堤港商场地下一层LG36-38商铺
北京市,北京市,星巴克咖啡(北京财富中心三店),东三环中路5号楼财富金融中心B1层
北京市,北京市,星巴克咖啡(闵庄店),玉泉村北坞嘉园玉泉商业中心
北京市,北京市,星巴克咖啡(机场9店),首都机场路1号T3航站楼国际隔离区E23登记口
北京市,北京市,星巴克咖啡(星光影视店),北兴路2号1幢星光影视园A座
北京市,北京市,星巴克咖啡(3号航站楼E区),首都国际机场中心广场东侧3号航站楼E区F2层
北京市,北京市,星巴克咖啡(北京首都国际机场八店),首都机场T3航站楼D区2层
北京市,北京市,星巴克咖啡(北京富力家园店),东三环中路63号富力大厦101室
北京市,北京市,星巴克咖啡(机场五店),首都机场3号航站楼到达大厅2层
北京市,北京市,星巴克外交办公大楼店(臻选店),亮马桥外交办公大楼1层(地铁10号线亮马桥站B口)
北京市,北京市,星巴克集成电路店,北清路85附近
北京市,北京市,STARBUCKS COFFEE,方庄路璞瑅公寓紫芳园四区3号楼1层7号
北京市,北京市,STARBUCKS COFFE,九棵树西路48号life新生活广场F3
北京市,北京市,STARBUCKS COFFE餐饮区(北京国贸商城北区西段),建国门外大街1号北京国贸商城L2层
北京市,北京市,星巴克(北四环东路店)(装修中),北四环东路73号远洋未来广场1层31单元
北京市,北京市,星巴克(三里河东路店)(装修中),复兴门大街15号长安商场F1层
北京市,北京市,星巴克咖啡(朝阳银泰店)(装修中),建国门外大街2号北京银泰中心B1层B38-B39
北京市,北京市,星巴克咖啡(北京安贞环贸2店)(装修中),北三环东路36号环球贸易中心A座1层01单元
北京市,北京市,星巴克咖啡(北京阜通东大街二店)(建设中),阜安西路望京SOHO中心T2
北京市,北京市,星巴克咖啡(北京广渠门名敦道店)(装修中),广渠家园3号楼1层(近首东国际)
天津市,天津市,星巴克咖啡(广东路店),广东路60号
天津市,天津市,星巴克(津汇广场2店),南京路189号津汇广场2号写字楼大堂一层01-01单元
天津市,天津市,星巴克(鲁能中心1店),[]
天津市,天津市,星巴克(陆家嘴购物中心店),大丰路25-29号陆家嘴1F-L108
天津市,天津市,星巴克(中北新城市广场店),中北镇万卉路新城市中心1层
天津市,天津市,星巴克(滨海泰达店),时尚西路18号泰达时尚1层A107单元
天津市,天津市,星巴克(洞庭路中冶和悦汇店),黑牛城道与内江北路交口西北侧号七贤南里D块地第1层130-131单元
天津市,天津市,星巴克(中豪世纪花园店),围堤道120增1号中豪世纪花园
天津市,天津市,星巴克(和平大悦城店),南京路189号和平大悦城购物中心1层1号
天津市,天津市,星巴克咖啡(奥城2店),时代奥城中央大街
天津市,天津市,星巴克咖啡(天津新意街2店),光复道与民生路交叉口南100米
天津市,天津市,星巴克咖啡(太极园店),太极园底商109、110-1号
天津市,天津市,星巴克咖啡(长江道店),长江道14号地上1层5号
天津市,天津市,星巴克咖啡(富力津门湖店),津门湖江湾广场13-17号
天津市,天津市,星巴克咖啡(天津巨川金海岸店),学校大街529号
天津市,天津市,星巴克咖啡(时代奥城三店),奥城商业广场19-1-114
天津市,天津市,星巴克(天津新汇华庭店),天津市和平区荣业大街45号
天津市,天津市,星巴克咖啡(天津社会山广场咖啡店),张家窝镇知景道321号社会山广场2号楼1层128号单元
天津市,天津市,星巴克(鲁能中心2店),天塔道北侧鲁能城购物中心1F-11号
天津市,天津市,星巴克咖啡(天津秀谷商城咖啡店),津塘公路1168号秀谷商城1层6A-6B、56-57号
天津市,天津市,星巴克咖啡(彩悦城店),乐园道9号彩悦城阳光乐园购物中心1层1A-14-1单元
天津市,天津市,星巴克(天津印象城店),民和道印象城购物中心1层
天津市,天津市,星巴克咖啡(天津友谊路咖啡店),友谊路21号友谊商厦第1层的L1-1单元
天津市,天津市,星巴克(朗香街店),建设路88号朗香街B2层M002-1单元
天津市,天津市,星巴克(气象台路店),气象台路与紫金山路交口西北侧宁发商城宁发商城3-101的D01
天津市,天津市,星巴克咖啡(津南永旺梦乐城店),市天津市津南区辛庄镇永旺梦乐城津沽公路与鑫怡路交口津南永旺梦乐城三层
天津市,天津市,星巴克咖啡(滨海万达广场店),洞庭路4572号地面1层1001号
天津市,天津市,星巴克咖啡(环湖中道店),环湖中道3号01幢1层103单元
天津市,天津市,星巴克咖啡(津南永旺梦乐城店),辛庄镇永旺梦乐城3层362号
天津市,天津市,星巴克咖啡(于家堡店),新金融大厦1层
天津市,天津市,星巴克咖啡(科技金融大厦店),滨海高新区华苑产业区梅苑路5号金座广场103-104
天津市,天津市,星巴克咖啡(保税区店),自贸试验区(天津港保税区)天保大道188号开利大厦1层102
天津市,天津市,星巴克咖啡(环球置地广场店),南京路309号环球置地1层102
天津市,天津市,星巴克(滨海伊势丹店),天津开发区第二大街62号伊势丹B1层T08单元
天津市,天津市,星巴克咖啡(月坛商厦店),咸水沽为民路4号月坛商厦东区F1层
天津市,天津市,星巴克咖啡(天河城店),和平路263号天津天河城购物中心1层123号
天津市,天津市,星巴克咖啡(赛顿中心店),西康路37号赛顿中心1层102单元
天津市,天津市,星巴克咖啡(远洋未来汇店),远洋中心路89号地上1层F108-112-114单元
天津市,天津市,星巴克咖啡(第六田园商业广场店),解放南路476号田园商业广场F1层
天津市,天津市,星巴克咖啡(友谊新都市百货店),狮子林大街200号友谊新都百货1层
天津市,天津市,星巴克咖啡(欧贸中心店),中心大道和东四道交口处融和广场1号楼
天津市,天津市,星巴克咖啡(金谷大厦店),滨江道1号金谷大厦1层107单元
天津市,天津市,星巴克咖啡(大港友谊百货店),胜利街651号友谊百货1层A101号
天津市,天津市,星巴克咖啡(泰达生活馆店),经济开发区第二大街56号泰达生活馆1层101号
天津市,天津市,星巴克咖啡(大光明店),杨村街泉州路西侧新光广场地上一层1-51、1-52号铺位
天津市,天津市,星巴克(海信广场),解放北路188号海信广场2-3层
天津市,天津市,星巴克咖啡(富力广场店),市南开区北马路127号富力广场1层101号
天津市,天津市,星巴克咖啡(第三大街店),开发区第三大街32号鸿泰·千佰汇商业广场2区1层-7、2区1层-8
天津市,天津市,星巴克咖啡(SM城市广场店),环河北路168号SM天津滨海城市广场金环1层D1026号
天津市,天津市,星巴克咖啡(万福店),铁东路宁宇家园9号楼K3-101
天津市,天津市,星巴克,南门外大街2号大悦城B1-48
天津市,天津市,星巴克咖啡(远洋新天地店),新开路67号101-102单元
天津市,天津市,星巴克咖啡(威尼都店),前进道与翠通路交口威尼都食尚购物乐园南区1层
天津市,天津市,星巴克(滨海高新区工华道店),新产业园区华苑产业区工华道1号虚拟园104-105-1
天津市,天津市,星巴克咖啡(奥城商业广场二店),奥城商业广场A3写字楼
天津市,天津市,星巴克咖啡(友谊武清百货店),京津公路与振华道交口友谊武清百货F1层
天津市,天津市,星巴克(南京路店),南京路108号伊势丹百货B1层
天津市,天津市,星巴克咖啡(新燕莎奥特莱斯店),环河北路98号新燕莎奥特莱斯1层A8-108号单元
天津市,天津市,星巴克咖啡(津汇广场店),南京路189号津汇广场地下一层B-35
天津市,天津市,星巴克咖啡(荣业大街万兆店),南市街福安大街D座入口国美电器楼下
天津市,天津市,星巴克咖啡(天津嘉利大厦店),卫津路北端嘉利大厦1-102-A01
天津市,天津市,星巴克咖啡(天津百货大楼咖啡店),新华路3号天津百货大楼F1层A03单元
天津市,天津市,星巴克咖啡(永旺购物中心),中北工业园阜盛道1号永旺购物中心1F层117
天津市,天津市,星巴克咖啡(天津大岛广场店),环岛西路11号大岛商业广场1层S1-106
天津市,天津市,星巴克咖啡(凯德国际贸易中心店),南京路39号1-5-6号
天津市,天津市,星巴克咖啡(宝龙国际店),新港路1813号宝龙城市广场1层L1-128单元
天津市,天津市,星巴克咖啡(河东嘉里中心店),六纬路238号嘉里中心商场1层L1012A单元正门直对
天津市,天津市,星巴克咖啡(仁恒置地广场二店),东马路135号仁恒海河广场1层1-10
天津市,天津市,星巴克咖啡(金河购物广场店),友谊北路60号金河购物广场1层(罗马花园附近)
天津市,天津市,星巴克咖啡(天津滨海国际机场),张贵庄津汉公路天津滨海国际机场T2航站楼F3层
天津市,天津市,星巴克咖啡(天津仁恒广场咖啡店),东马路137号乐天百货1层EF-1单元
天津市,天津市,星巴克(和平恒隆广场店),兴安路166号恒隆广场2层2010号
天津市,天津市,星巴克咖啡(天津五大道店),洛阳道61-73号楼1层
天津市,天津市,星巴克咖啡(天津凯旋门亨泰店),南京路66号凯旋门大厦1层1-1单元
天津市,天津市,星巴克咖啡(天津新意街店),新意大利风情街自由道60-62号
天津市,天津市,星巴克(友谊新天地商厦店),滨江道208号友谊新天地广场A区F1层
天津市,天津市,星巴克(永旺梦乐城梅江店),友谊南路111号A区A158
天津市,天津市,星巴克咖啡(天津大悦城北区),南门外大街2号大悦城B区B1层
天津市,天津市,星巴克咖啡(银河广场咖啡店),乐园道9号银河国际购物中心1层L1-45-2单元
天津市,天津市,星巴克(塘沽金元宝金街店),解放路668号金元宝商厦1层
天津市,天津市,星巴克咖啡(天佑城店),西马路与南马路交口天佑城商场1层101-102单元
天津市,天津市,星巴克咖啡(梅江凤水园咖啡店),友谊南路与珠江道交口西南侧凤水园2-25单元
天津市,天津市,星巴克咖啡(新港店),新港路276号于家堡金元宝购物中心1层A01单元
天津市,天津市,星巴克咖啡(永旺),时尚东路29号永旺梦乐城天津TEDA购物中心1层区域120单元
天津市,天津市,星巴克咖啡(天津火车站店),新纬路1号候车室2层13和14检票口中间位置
天津市,天津市,星巴克咖啡(友谊路店),黑牛城道125号新业广场1层A101-A102
天津市,天津市,星巴克咖啡(水游城店),大丰路18号水游城2层F2AN15单元
天津市,天津市,星巴克咖啡(时代数码广场店),鞍山西道259号时代数码广场1层101单元
天津市,天津市,星巴克咖啡(怡乐天地店),大沽南路531号怡乐购物广场1层1022单元
天津市,天津市,星巴克咖啡(奥城店),凌宾路奥城商业广场8号楼彩柒汇商业广场1层8102-1单元
天津市,天津市,星巴克咖啡(五大院店),泰安道3号院1号楼1-2层
天津市,天津市,星巴克咖啡(天津国际商场店),南京路天津国际商场A座1-2层
天津市,天津市,星巴克咖啡(万达广场河东店),津滨大道53号万达百货1层151A单元
天津市,天津市,星巴克咖啡(天津凯德天津湾店),南北大街1号凯德MALL天津湾购物中心1层
天津市,天津市,星巴克咖啡(天津国际大厦店),南京路75号天津国际大厦1层
天津市,天津市,星巴克咖啡(金元宝滨海中心店),天津泰达开发区黄海路19号金元宝滨海国际购物中心1层
天津市,天津市,星巴克咖啡(天津乐宾店),南京路128号乐宾百货1层C06-C07
天津市,天津市,星巴克(武清佛罗伦萨小镇店)(装修中),武清开发区前进道北侧号佛罗伦萨小镇一楼Food12号
天津市,天津市,星巴克咖啡(小白楼店)(装修中),小白楼开封道54号1-2层
上海市,上海市,星巴克,四川北路1689号嘉杰国际广场1层110、202室
上海市,上海市,星巴克,金汇南路158号
上海市,上海市,星巴克,1号候机楼国际出发禁区商业区
上海市,上海市,星巴克咖啡,虹莘路1054号星宝广场一楼
上海市,上海市,星巴克(光启城店),宜山路455号光启城L1层183&185
上海市,上海市,星巴克(华泰广场店),江桥镇金运路355号华泰中心1层
上海市,上海市,星巴克(长岛路店),长岛路1156-1158号金桥翡翠坊F1层
上海市,上海市,星巴克(公园东路店),公园东路1289号富绅商业中心F1层
上海市,上海市,星巴克(八一广场店),城桥镇八一路206号八一广场1层(近富民路)
上海市,上海市,星巴克(凯德晶萃店),徐家汇路268号1-7-8
上海市,上海市,星巴克(世纪大都会1F店),世纪大道1229号1层4单元
上海市,上海市,星巴克(益丰外滩源店),北京东路99号地上1层L101A室
上海市,上海市,星巴克(静安嘉里中心1店),南京西路1515号静安嘉里中心东区F1层E1-3、E1-6K
上海市,上海市,星巴克(灵石路店),灵石路716号宝燕商城1层
上海市,上海市,星巴克(正大广场2店),陆家嘴西路168号正大广场B2-5单元区
上海市,上海市,星巴克(真北华润万家店),长征镇铜川路1688号第1层L1026单元
上海市,上海市,星巴克(羽山路店),羽山路116-118号源深体育馆6号门对面
上海市,上海市,星巴克(城建大厦店),福山路500号城建国际中心1层
上海市,上海市,星巴克(大悦城北楼店),西藏北路166号上海大悦城北座L8层N810
上海市,上海市,星巴克(合生汇店),翔殷路1099号上海合生国际广场B1层12号
上海市,上海市,星巴克(南桥宝龙商业广场店),航南公路5639号宝龙城市广场1层-36单元
上海市,上海市,星巴克(浦建路店),浦建路118号巴黎春天百货F1层
上海市,上海市,星巴克(龙湖虹桥天街购物中心B馆),申滨南路1126号龙湖虹桥天街购物中心B馆F1层B-L1-23
上海市,上海市,星巴克(月亮湾店),瑞虹路188号瑞虹天地月亮湾L1层L1-15
上海市,上海市,星巴克(K11购物艺术中心店),淮海中路300号上海K11购物艺术中心L1层106
上海市,上海市,星巴克(塞纳左岸生活广场店),文诚路500弄1号松江塞纳左岸生活广场L22-1
上海市,上海市,星巴克(嘉定大融城店),宝安公路3386号大融城1层131
上海市,上海市,星巴克(嘉定百联店),澄浏中路3090号1层6室
上海市,上海市,星巴克(上海奕欧来奥特莱斯店),申迪东路88号上海奕欧来奥特莱斯月牙畔1100
上海市,上海市,星巴克(E朋汇店),江浦路627号24幢101室
上海市,上海市,星巴克(虹桥天地二店),申长路668号1层106-3-4单元
上海市,上海市,星巴克(传奇商业广场店),碧波路635号上海传奇104号1F24-23B室
上海市,上海市,星巴克(宝山宝龙广场店),杨南路2211号宝山宝龙城市广场F1层
上海市,上海市,星巴克(久事大厦店),四川中路213号久事商务大厦1层102室
上海市,上海市,星巴克(8号桥二期1号楼店),8号桥二期局门路436号1号楼1102单元
上海市,上海市,星巴克(浦东机场T2到达店),浦东机场迎宾大道8000号T2航站楼2层
上海市,上海市,星巴克(新大陆广场店),南泉北路588号S1-08
上海市,上海市,星巴克(静安恒隆广场店),南京西路1266号恒隆广场1号楼1层
上海市,上海市,星巴克(中山公园龙之梦1店),长宁路1018号龙之梦购物中心F1层1073
上海市,上海市,星巴克(中山公园龙之梦2店),长宁路1018号上海龙之梦大厦B2层2号
上海市,上海市,星巴克(百联悠迈生活广场店),四平路2500号悠迈生活广场1层B19-F01-1-030室
上海市,上海市,星巴克(浦江科技广场店),浦江园内陈行路2388号浦江科技广场1号楼银杏广场F1层101室
上海市,上海市,星巴克(古美路店),古美路1528号7幢1层1商业101D室
上海市,上海市,星巴克(中远两湾城店),中潭路71号
上海市,上海市,星巴克(越洋广场店),南京西路1601号越洋广场1层1I室
上海市,上海市,星巴克(漕河泾2店),桂平路391号新漕河泾国际商务中心B座1层
上海市,上海市,星巴克(金茂时尚生活中心),世纪大道88号金茂大厦JLIFE时尚生活中心2层2C-08、10
上海市,上海市,星巴克(周浦万达店),周浦镇年家浜路518号万达广场1层156-157
上海市,上海市,星巴克(杨浦又一城店),淞沪路8号百联又一城1层6号
上海市,上海市,星巴克(静安大融城店),沪太路1111弄8号5号楼1层
上海市,上海市,星巴克(开元二店),新松江路925弄开元地中海商业广场1层1-000号
上海市,上海市,星巴克(来福士2F店),西藏中路268号来福士广场2层4-5单元
上海市,上海市,星巴克(环球港B1店),中山北路3300号上海环球港B1148-B1149
上海市,上海市,星巴克(徐汇日月光店),漕宝路33号L1层30铺位
上海市,上海市,星巴克(康桥漕河泾店),秀浦路2555号8幢1层104室
上海市,上海市,星巴克(中环百联店),真光路1288号百联购物广场1层A-L101
上海市,上海市,星巴克(龙湖宝山天街店),丹霞山路50弄1号
上海市,上海市,星巴克(大宁中心广场店),万荣路777弄2号大宁音乐广场1层101室
上海市,上海市,星巴克(龙之梦店),西江湾路388号虹口龙之梦A座1层10、55号
上海市,上海市,星巴克(来福士办公楼店),西藏中268号来福士广场办公楼1层大堂L1-2
上海市,上海市,星巴克(悦荟店),南京东路353号1层122室、2层211室
上海市,上海市,星巴克(浦江双辉店),银城路9-99号B1层01单元
上海市,上海市,星巴克(绿地北外滩中心店),东大名路988号102
上海市,上海市,星巴克(尚品中心B1店),福泉北路518号虹桥国际商务花园尚品中心B1层
上海市,上海市,星巴克(外滩金融中心办公楼店),中山东二路600号1幢1层东侧
上海市,上海市,星巴克(西云楼店),洪德路300-302号
上海市,上海市,星巴克(滨江光合新座店),民生路118弄
上海市,上海市,星巴克(正大广场3店),陆家嘴西路168号正大广场3层
上海市,上海市,星巴克(森兰美伦店),兰嵩路555号B幢119室
上海市,上海市,星巴克(国拓广场店),莘松路195号国拓广场1层
上海市,上海市,星巴克(闵行爱琴海购物公园店),"虹井路120弄-6号F160,F161室"
上海市,上海市,星巴克(运动loft店),同心路723号11幢102室
上海市,上海市,星巴克(耀江广场店),吴淞路258号1层102室
上海市,上海市,星巴克(长宁世贸商城店),延安西路2299号世贸商城2层
上海市,上海市,星巴克(宝武大厦店),世博大道1859号
上海市,上海市,星巴克(明中广场店),明中路1885号零售商区1层1单元
上海市,上海市,星巴克(浦东机场T1出发层M岛店),迎宾大道6000号候机楼3层南岛区域1号
上海市,上海市,星巴克(民星路店),民星路378号163、166-167室
上海市,上海市,星巴克(云间新天地店),云间路109号2-1-2室
上海市,上海市,星巴克(浦东机场T2-77号店),迎宾大道8000号浦东国际机场T2候机楼国际出发禁区
上海市,上海市,星巴克(新研大厦店),桂箐路65号1层107B号和2层202-9号
上海市,上海市,星巴克(川沙百联店),川沙路5398号1F-012室
上海市,上海市,星巴克(真如星光耀广场店),曹杨路1888弄2号楼第1层D02单元
上海市,上海市,星巴克(东方明珠店),世纪大道1号广场1号
上海市,上海市,星巴克(尚浦中心店),江湾城路99号尚浦商务中心6幢1层109a
上海市,上海市,星巴克(科技广场店),莘砖公路668号1层106-1-2号商铺工行旁
上海市,上海市,星巴克(缤谷广场二期店),天山路345号缤谷文化休闲广场2期3层310B单元
上海市,上海市,星巴克(迪士尼团队大楼店),申迪北路753号111室
上海市,上海市,星巴克(福建中路店),福建中路353号1-2层的1A2单元
上海市,上海市,星巴克(瑞金医院综合大楼店),瑞金二路197号综合大楼10号楼1层
上海市,上海市,星巴克(老介福店),南京东路233号南京大楼1层
上海市,上海市,星巴克(颛桥万科店),颛兴东路1759号1层106单元
上海市,上海市,星巴克(富绅时代广场店),盈港路1616弄1-50号1层18-19单元
上海市,上海市,星巴克(青浦宝龙店),盈港东路7828号1层1室
上海市,上海市,星巴克(龙漕路店),龙漕路299号4幢1层102室
上海市,上海市,星巴克(虹桥机场T1到达店),机场迎宾一路800号1号航站楼B楼到达层公众区A001室
上海市,上海市,星巴克(长风大悦城2店),大渡河路196号大悦城2层204
上海市,上海市,星巴克(新华医院店),江浦路1379号新华医院25号科技楼第1层101号单元
上海市,上海市,星巴克(环贸广场办公楼店),淮海中路999号环贸广场办公楼1期2层大堂区域200室
上海市,上海市,星巴克(畹町万科集店),畹町路399号5幢地上1层101单元
上海市,上海市,星巴克(船舶大厦店),浦东大道1号1层
上海市,上海市,星巴克(怡丰城办公楼店),顾戴路2337号丰树商业城塔楼E楼1层102号
上海市,上海市,星巴克(置汇旭辉广场店),张杨路2389弄LCM置汇旭辉广场
上海市,上海市,星巴克(招商局上海中心店),国耀路198-200号
上海市,上海市,星巴克(金山欧尚店),蒙山北路399号1层653-SHJS1027A
上海市,上海市,星巴克(城市概念园店),双阳支路135-137号
上海市,上海市,星巴克(凌空广场携程店),金钟路968号凌空SOHO16号楼1层16-101
上海市,上海市,星巴克(漕河泾浦江科技园F区店),浦江镇新骏环路188号8幢102-2室
上海市,上海市,星巴克(新理想广场店),荣乐西路790号新理想广场1层14
上海市,上海市,星巴克(第一百货商业中心店),南京东路800号4层B02-F04-1-305室
上海市,上海市,星巴克(汤臣店),东方路710号汤臣金融大厦1层
上海市,上海市,星巴克(金山百联店),近郊金山区卫清西路188号百联金山购物中心1层(近松卫南路)
上海市,上海市,星巴克(航运金融大厦店),浦东大道720号国际航运金融大厦1层
上海市,上海市,星巴克咖啡(滨江店),滨江大道富都段滨江公园内(富城路名商路)
上海市,上海市,星巴克咖啡(万都店),遵义南路9号万都中心大厦1层S102、S106
上海市,上海市,星巴克咖啡(三林印象城店),永泰路1058弄三林印象城1层
上海市,上海市,星巴克咖啡(东航云锦天地店),龙兰路277号3号楼1层七贤日料店
上海市,上海市,星巴克咖啡(晶品),愚园路68号晶品L2层L2-09A
上海市,上海市,星巴克咖啡(久光百货店),南京西路1618号久光百货F1层S103室
上海市,上海市,星巴克咖啡(浦汇大厦店),福州路318号浦汇大厦1层
上海市,上海市,星巴克咖啡(新天地店),茉莉路225弄港城新天地A座1层
上海市,上海市,星巴克咖啡(江镇新都汇店),祝桥镇江晖路409弄D区51号新都汇广场1层5室
上海市,上海市,星巴克咖啡(前滩世贸中心店),东育路255弄前滩世贸中心项目一期8号楼1层101单元
上海市,上海市,星巴克咖啡(唐镇阳光城店),高科东路777弄1号阳光天地商业广场1层L102
上海市,上海市,星巴克咖啡(青浦世纪联华店),城中北路718号1幢1层F01115单元
上海市,上海市,星巴克咖啡(松江泗泾保利店),泗泾镇泗宝路41号1层103室
上海市,上海市,星巴克咖啡(吴泾宝龙店),剑川路438号吴泾宝龙广场1层底商
上海市,上海市,星巴克咖啡(张江万科翡翠公园店),荣科路286号翡翠公园商场1层101号单元
上海市,上海市,星巴克咖啡(松江万达广场店),广富林路658号万达广场F1层1031-1032
上海市,上海市,星巴克咖啡(青浦新尚生活广场店),华志路771-789号1层102a单元
上海市,上海市,星巴克咖啡(七宝万科广场店),漕宝路3366号七宝万科广场F5层
上海市,上海市,星巴克咖啡(1788E.A.T),南京西路1788号1788EATF1层F1-9
上海市,上海市,星巴克咖啡(嘉定日月光店),城北路358号1层15单元日月光中心1层
上海市,上海市,星巴克咖啡(森宏生活广场店),长清路1200号森宏购物广场1层2101室
上海市,上海市,星巴克咖啡(金山枫泾古镇店),枫泾镇北大街256号
上海市,上海市,星巴克咖啡(文诚路店),文诚路1480号新乐坊生活广馆1楼
上海市,上海市,星巴克咖啡(港汇恒隆广场),虹桥路1号港汇广场1座1层大唐堂
上海市,上海市,星巴克咖啡(五角场万达影城店),五角场万达商业广场万达影城国宾路58号3层
上海市,上海市,星巴克咖啡(思南公馆店),思南路50号
上海市,上海市,星巴克咖啡(莘庄龙之梦店),沪闵路6088号1层1-2号
上海市,上海市,星巴克咖啡(万嘉广场店),东靖路1881号万嘉商业广场1层(近新行路)
上海市,上海市,星巴克咖啡(五福商业广场店),东风路9-11
上海市,上海市,星巴克咖啡(湖滨道店),湖滨路150号湖滨道购物中心1层105室
上海市,上海市,星巴克咖啡(乐坊广场店),金鼎路2218号乐坊精致生活广场东区1层121单元
上海市,上海市,星巴克咖啡(金山工业园区店),夏宁路818弄70号联东U谷商务中心1层
上海市,上海市,星巴克咖啡(松江沪亭北路店),沪亭北路666-668号
上海市,上海市,星巴克咖啡(鸿音广场店),南芦公路1755弄鸿音广场7号楼1-2层
上海市,上海市,星巴克咖啡(长泰广场店),祖冲之路1239弄6号10号楼1层05-159单元
上海市,上海市,星巴克咖啡(惠南世纪联华店),惠南镇城东路384号1层MSGC2单元
上海市,上海市,星巴克咖啡(唐镇恒生店),上丰路1702号唐镇恒生广场101室
上海市,上海市,星巴克咖啡(江桥老街店),虞姬墩路505号4幢101-102、109
上海市,上海市,星巴克咖啡(大宁店),共和新路1988号大宁国际商业广场5座1层114-117室
上海市,上海市,星巴克咖啡(碧云路店),碧云路1156-1160号
上海市,上海市,星巴克咖啡(浦东软件园店),浦东软件园晨晖路1000号浦东软件园祖冲之园1号楼116-a室
上海市,上海市,星巴克咖啡(乐购大华店),大华路518号乐购大华店1层S1、S2单元
上海市,上海市,星巴克咖啡(南翔店),佳通路31弄3号中冶祥腾城市广场3层(近11号线南翔站)
上海市,上海市,星巴克咖啡(外滩店),外滩中山东一路367号
上海市,上海市,星巴克咖啡(外滩中心店),延安东路222号外滩中心1层
上海市,上海市,星巴克咖啡(莘庄仲盛店),都市路5001号仲盛世界商城F1层GF12
上海市,上海市,星巴克咖啡(豫园店),豫园路100号
上海市,上海市,星巴克咖啡(徐汇漕河泾店),宜山路1009号创新大楼1层
上海市,上海市,星巴克咖啡(瑞虹店),临平路1号10-11单元(近飞虹路)
上海市,上海市,星巴克咖啡(汇宝广场店),漕宝路3459号汇宝购物广场C区1层
上海市,上海市,星巴克咖啡(金桥店),碧云路633号碧云国际社区碧云体育休闲中心1-2层
上海市,上海市,星巴克咖啡(古北店),水城南路20号1-2层
上海市,上海市,星巴克咖啡(神州智慧天地店),神州智慧天地 天山西路567号神州智慧天地裙房1层R106号
上海市,上海市,星巴克咖啡(奉贤金叶商厦店),南中路80号浦商百货1层1F06
上海市,上海市,星巴克咖啡(新天地店),太仓路181弄上海新天地北里F1层
上海市,上海市,星巴克咖啡(衡山坊店),衡山路890弄3号
上海市,上海市,星巴克咖啡(永新店),辛耕路129号(近天钥桥路)
上海市,上海市,星巴克咖啡(118广场店),金沙江路1685号118广场4区咖啡金字塔(近真北路)
上海市,上海市,星巴克咖啡(日月光店),徐家汇路618号日月光广场1层1F-A08单元
上海市,上海市,星巴克咖啡(夏都小镇店),沪青平公路1583号内街谢卫路1450号A2-103a
上海市,上海市,星巴克咖啡(嘉御庭店),建国西路258号
上海市,上海市,星巴克咖啡(漫游城步行街店),万源南路99弄6号107-108室
上海市,上海市,星巴克咖啡(沃尔玛店),临沂北路252号沃尔玛1层
上海市,上海市,星巴克咖啡(中信泰富万达广场店),胜辛路447号中信泰富万达广场1层
上海市,上海市,星巴克咖啡(汇阳广场店),田林东路75号1层105单元
上海市,上海市,星巴克咖啡(世博源店),世博大道1368号世博源3区L1层3L130室
上海市,上海市,星巴克咖啡(上海广场店),淮海中路138号上海广场F1层106
上海市,上海市,星巴克咖啡(国和路店),国和路1000号1000广场1层117室
上海市,上海市,星巴克咖啡(美罗城店),肇嘉浜路1111号美罗城219号(近漕溪北路)
上海市,上海市,星巴克咖啡(丹桂路店),丹桂路999号国创中心1期G1座1层
上海市,上海市,星巴克咖啡(嘉定同济科技园店),绿苑路587号1层
上海市,上海市,星巴克咖啡(江场二路店),江场二路77-79号
上海市,上海市,星巴克咖啡(世纪汇广场店),世纪大道1192号世纪汇广场LG1层002号
上海市,上海市,星巴克咖啡(南洋1931店),裕德路165号1层F1-04单元
上海市,上海市,星巴克咖啡(高桥新城店),夏碧路519号夏碧路莱阳路交叉口1层
上海市,上海市,星巴克咖啡(星宝广场店),漕宝路1574号1层20室
上海市,上海市,星巴克咖啡(环贸广场店),淮海中路999号环贸iapmLG2层LG2-236
上海市,上海市,星巴克咖啡(纬地路店),罗泾镇纬地街路61号甲
上海市,上海市,星巴克咖啡(唯品会店),申长路1588弄6号6号楼104-106单元
上海市,上海市,星巴克咖啡(航科大厦店),源深路92号航科大厦
上海市,上海市,星巴克咖啡(中建广场店),高科西路897号中建广场乐荟天地1层
上海市,上海市,星巴克咖啡(万达广场颛桥店),颛桥镇颛兴东路1559号万达广场(颛桥店)F1层1001A
上海市,上海市,星巴克咖啡(大学路店),大学路318号
上海市,上海市,星巴克咖啡(红松路店),红松路227号和235号102A室
上海市,上海市,星巴克咖啡(远洋财富广场店),台中南路68号1幢103-104室
上海市,上海市,星巴克咖啡(泰州路店),泰州路409号1层
上海市,上海市,星巴克咖啡(兴梅路店),兴梅路1234号1-2层、兴梅路1238、1236号1-2层
上海市,上海市,星巴克咖啡(海伦中心店),金融街海伦中心海伦路440号1夹层1-2层202单元
上海市,上海市,星巴克咖啡(上海中心F1店),银城中路501号上海中心西门1层
上海市,上海市,星巴克咖啡(正大乐城1店),中山南二路699号正大乐城F1层1-104
上海市,上海市,星巴克咖啡(东建路店),东建路209-213号
上海市,上海市,星巴克咖啡(松江乐尚天地广场店),南乐路456号6幢一层3101-3102A室
上海市,上海市,星巴克咖啡(凯德·星贸店),恒通路318号凯德星贸广场1层
上海市,上海市,星巴克咖啡(飞航广场店),玉树路2559号飞航广场1幢1层159-160单元
上海市,上海市,星巴克咖啡(东郊中心店),紫竹路383弄25号(近金桥路)
上海市,上海市,星巴克咖啡(黄金城道店),黄金城道776号1层103室
上海市,上海市,星巴克咖啡(新龙华店),柳州路138号110室
上海市,上海市,星巴克咖啡(徐汇百联店),华山路2038号百联徐汇商业广场1层7室
上海市,上海市,星巴克咖啡(上海浦东国际机场),迎宾大道6000号上海浦东国际机场2F层
上海市,上海市,星巴克咖啡(食尚中心店),沪青平公路1899号A座1层A101-1单元
上海市,上海市,星巴克咖啡(曲阳路店),曲阳路379号1楼1004单元
上海市,上海市,星巴克咖啡(古象大酒店),九江路595号古象大酒店(近湖北路)
上海市,上海市,星巴克咖啡(成山路家乐福店),成山路1111号
上海市,上海市,星巴克咖啡(维璟广场店),七莘路1507号地上1层1507号
上海市,上海市,星巴克咖啡(金杨第一商城店),枣庄路805-807号金杨第一商城1层
上海市,上海市,星巴克咖啡(枣阳路店),金沙江路枣阳路592号
上海市,上海市,星巴克咖啡(嘉定宝龙城市广场店),阿克苏路1099号嘉定宝龙广场1层409单元
上海市,上海市,星巴克咖啡(东方万国店),新金桥路1599号东方万国企业中心17幢B1层103号-B2层103号
上海市,上海市,星巴克咖啡(香港名都店),河南南路489号香港名都购物中心1层L138-L140单元近复兴东路
上海市,上海市,星巴克咖啡(奉贤苏宁生活广场店),南奉公路7500号苏宁生活广场1层101-102室
上海市,上海市,星巴克咖啡(我格广场店),武宁路101号我格广场F1层L1-SPK2
上海市,上海市,星巴克咖啡(上海交通大学店),华山路1954号包兆龙图书馆1层
上海市,上海市,星巴克咖啡(丁香国际商业中心店),丁香路880弄丁香国际商业中心L1层L 101+102号单元
上海市,上海市,星巴克咖啡(尚嘉中心店),仙霞路99号尚嘉中心LG2层
上海市,上海市,星巴克咖啡(KING88购物中心店),长宁路90号附近KiNG88F1层L1-17-18
上海市,上海市,星巴克咖啡(松江平高广场店),九峰路118号平高广场1层101室02单元
上海市,上海市,星巴克咖啡(南翔太茂商业广场店),丰翔路3168号南翔太茂商业广场F1层113单元
上海市,上海市,星巴克咖啡(金山医院店),山阳镇龙航路1508号金山医院1层门诊大厅101室
上海市,上海市,星巴克咖啡(北艾路店),北艾路1770-1772号
上海市,上海市,星巴克咖啡(金桥太茂店),金高路1882号太茂广场1层105单元
上海市,上海市,星巴克咖啡(中江路店),长征镇中江路889号曹杨商务大厦
上海市,上海市,星巴克咖啡(福缘湾九华店),淞虹路920号福缘湾商场1层1座1101单元
上海市,上海市,星巴克咖啡(佳木斯路店),五角场镇佳木斯路488号1层101室
上海市,上海市,星巴克咖啡(茶陵北路店),茶陵北路20号A1室
上海市,上海市,星巴克咖啡(歌斐中心店),蒙自路757号1楼106单元
上海市,上海市,星巴克咖啡(入口之家店),漕宝路3299弄15号七宝宝龙城中庭一至二层
上海市,上海市,星巴克咖啡(安波路店),安波路419号
上海市,上海市,星巴克咖啡(金鹰店),陕西北路278号金鹰国际购物中心1层A1-3
上海市,上海市,星巴克咖啡(望月路店),望月路885号
上海市,上海市,星巴克咖啡(复兴广场店),马当路388号SOHO复兴广场C座1层3
上海市,上海市,星巴克咖啡(川沙店),川沙路5500号浦东绿地铂骊酒店1层
上海市,上海市,星巴克咖啡(1699广场店),古北路1699号一层102单元
上海市,上海市,星巴克咖啡(富都广场店),东方路1367号富都广场1层
上海市,上海市,星巴克咖啡(平福路店),平福路188号3幢1层101单元
上海市,上海市,星巴克咖啡(金桥佳邻坊店),金高路1757号佳邻坊商业中心1层101-A室
上海市,上海市,星巴克咖啡(花木plus乐坊店),芳甸路1364号大唐PLUS乐坊
上海市,上海市,星巴克咖啡(延安西路店),延安西路562号1层
上海市,上海市,星巴克咖啡(三湘财富广场店),梅家浜路1500弄1-40号三湘财富广场1层底商
上海市,上海市,星巴克咖啡(虹桥万科一店),申长路988号虹桥万科中心1层
上海市,上海市,星巴克咖啡(浦江生活广场店),江月路浦江生活广场1层
上海市,上海市,星巴克咖啡(新金桥路店),新金桥路2222号
上海市,上海市,星巴克咖啡(株洲路店),株洲路329号1-2层
上海市,上海市,星巴克咖啡(宜山路店),宜山路675-1单元
上海市,上海市,星巴克咖啡(中兴店),西藏北路558号上海铭德大酒店1层
上海市,上海市,星巴克咖啡(幸福里店),番禺路381号8号楼1层111室
上海市,上海市,星巴克咖啡(香港广场店),淮海中路283号香港广场购物中心北区F1层NL1-16
上海市,上海市,星巴克咖啡(悠方店),殷行路1388号上海悠方1层102
上海市,上海市,星巴克咖啡(近铁虹桥中心店),合川路3111号
上海市,上海市,星巴克咖啡(迪士尼小镇店),国际度假区申迪西路255弄602号
上海市,上海市,星巴克咖啡(东方蓝海店),关山路73-75号东方蓝海国际广场
上海市,上海市,星巴克咖啡(场北路店),纪蕰路320弄2号1层101室
上海市,上海市,星巴克咖啡(哈雷路店),哈雷路882号101室
上海市,上海市,星巴克咖啡(宝乐汇店),牡丹江路1569号宝乐汇1F层F127
上海市,上海市,星巴克咖啡(南丰宝矿店),恒丰路399号L101单元
上海市,上海市,星巴克咖啡(苏宁天御店),丹巴路99号苏宁天御国际广场B2座16-1室
上海市,上海市,星巴克咖啡(昌里路店),上南路1206
上海市,上海市,星巴克咖啡(恒隆二店),南京西路1266号恒隆广场3层306B
上海市,上海市,星巴克咖啡(万象城吴中路店),吴中路1599号LG101号
上海市,上海市,星巴克咖啡(上海浦东国际机场),启航路300号上海浦东国际机场3F层
上海市,上海市,星巴克咖啡(国家会展中心店),盈港东路158号D-L310
上海市,上海市,星巴克咖啡(长宁来福士西区),长宁路1193号凯德长宁来福士T3商务楼1层
上海市,上海市,星巴克咖啡(龙华朵云轩店),天钥桥路1188号朵云轩广场
上海市,上海市,星巴克咖啡(北新泾店),天山西路138号上海馥邦购物中心1层
上海市,上海市,星巴克咖啡(松江大学城店),文汇路
上海市,上海市,星巴克咖啡(柳州路店),柳州路399号恒地仓国际大厦1层大厅
上海市,上海市,星巴克咖啡(甘河路店),甘河路181号
上海市,上海市,星巴克咖啡(古北时尚店),吴中路52号古北时尚1层104室
上海市,上海市,星巴克咖啡(十六铺码头店),中山东二路531号十六铺旅游水岸商业广场B1层(十六铺公交站地下B1层)
上海市,上海市,星巴克咖啡(诺宝中心店),漕宝路1688号诺宝中心大酒店1层(漕宝路星东路)
上海市,上海市,星巴克咖啡(阳光城店),张扬北路3181号
上海市,上海市,星巴克咖啡(国康路店),国康路38号3幢邮电设计院1层
上海市,上海市,星巴克咖啡(星汇广场店),国安路758弄星汇广场10幢10F、10G室
上海市,上海市,星巴克咖啡(max未来店),海波路616号1层318室
上海市,上海市,星巴克咖啡(淮海花园店),淮海西路280号101(番禺路与淮海西路交口)
上海市,上海市,星巴克咖啡(丽婴房大厦店),七莘路1855号丽婴房大楼1层(华中路)
上海市,上海市,星巴克咖啡(十尚坊店),龙茗路1025号814单元
上海市,上海市,星巴克咖啡(纳贤路店),纳贤路800号2号楼105室
上海市,上海市,星巴克咖啡(1933老场坊店),沙泾路10号1933老场坊1层
上海市,上海市,星巴克咖啡(中港汇店),长寿路868号中港汇大厦1层(近武宁南路)
上海市,上海市,星巴克咖啡(顾村公园店),陆翔路111弄119号绿地正大缤纷城1层
上海市,上海市,星巴克咖啡(武威东路店),华灵路1788弄枫庭丽苑南门
上海市,上海市,星巴克咖啡(Z18广场店),政德东路53号嘉凯城Z18广场1层
上海市,上海市,星巴克咖啡(菊盛路店),菊盛路936-940号
上海市,上海市,星巴克咖啡(桂林路店),桂林路402号76幢诚达创意园103室
上海市,上海市,星巴克咖啡(海桐路店),海桐路338号世纪联华1层(近花木路)
上海市,上海市,星巴克咖啡(紫荆广场店),控江路1628号紫荆广场1层(新华医院)
上海市,上海市,星巴克咖啡(长阳谷店),长阳路1687号长阳谷7号楼7101
上海市,上海市,星巴克咖啡(万达广场),龙皓路1088号金山万达1层1002
上海市,上海市,星巴克咖啡(壹街坊店),上中西路280号(壹街坊)1层
上海市,上海市,星巴克咖啡(凤凰园店),古美路1515号19号楼102B室
上海市,上海市,星巴克咖啡(世界广场店),浦东南路855号世界广场1层1D
上海市,上海市,星巴克咖啡(禹州广场店),金港路299号禹州广场
上海市,上海市,星巴克咖啡(复旦软件园店),隆昌路586号七巧国际广场1层
上海市,上海市,星巴克咖啡(东宝兴路店),东宝兴路777号世纪联华1层1017F01002单元
上海市,上海市,星巴克咖啡(信息大厦店),世纪大道211号上海信息大厦1层
上海市,上海市,星巴克咖啡(太阳城店),恒丰路299号隆宇国际商务广场中101-07号
上海市,上海市,星巴克咖啡(蒲汇塘路店),文定路200号 盛源大地家居城1层1A09ab室
上海市,上海市,星巴克咖啡(华漕旭辉店),保乐路69号5号楼118单元
上海市,上海市,星巴克咖啡(申北路店),申北路8号2幢1层A8103/A8106
上海市,上海市,星巴克咖啡(齐河路沃尔玛店),齐河路258号1层F0103单元
上海市,上海市,星巴克咖啡(虹桥天地一店),申长路900号虹桥天地广场2号楼1层103单元
上海市,上海市,星巴克咖啡(金外滩花园店),中山南路200弄金外滩花园北侧底楼(老太平弄)
上海市,上海市,星巴克咖啡(宝钢商场店),牡丹江路1738号
上海市,上海市,星巴克咖啡(虹口龙之梦店),[]
上海市,上海市,星巴克咖啡(古美文创街店),文化创意街古美路569号1层
上海市,上海市,星巴克咖啡(好望角店),肇嘉浜路500-2号
上海市,上海市,星巴克咖啡(夏碧路店),夏碧路261号1层3777F01042单元
上海市,上海市,星巴克咖啡(新闸路店),新闸路1250号10号楼1层5-10室
上海市,上海市,星巴克咖啡(巴黎春天天山店),天山路762-780号巴黎春天(天山店)F1层
上海市,上海市,星巴克咖啡(巴黎春天长寿路店),长寿路155号巴黎春天百货F1层L110单元
上海市,上海市,星巴克咖啡(黄浦新苑店),黄浦新苑西藏南路1130号
上海市,上海市,星巴克咖啡(万源城店),万源路930-932-934号
上海市,上海市,星巴克咖啡(名仕苑店),广元西路98号3-4室
上海市,上海市,星巴克咖啡(四平路店),四平路188号113、116室
上海市,上海市,星巴克咖啡(枫林国际大厦店),枫林路380号A座1层102室
上海市,上海市,星巴克咖啡(瑞虹天地店),瑞虹天地天虹路320号、天宝路280弄1号
上海市,上海市,星巴克咖啡(虹桥机场T2到达店),迎宾大道8000号虹桥机场T2航站楼到达区1层
上海市,上海市,星巴克咖啡(中建大厦店),世纪大道1568-1588号102A单元
上海市,上海市,星巴克咖啡(潍坊西路店),潍坊西路92号
上海市,上海市,星巴克咖啡(星空广场店),虹桥路1665号星空广场A-104-105单元
上海市,上海市,星巴克咖啡(中山广场店),中山西路1065号SOHO中山广场B座104室近虹桥路
上海市,上海市,星巴克咖啡(汇银大厦店),南京西路汇银大厦762号1层d座
上海市,上海市,星巴克咖啡(上影博物馆店),漕溪北路595号上海电影博物馆A座1楼博物馆内
上海市,上海市,星巴克咖啡(老闵行生活广场店),鹤庆路900号老闵行生活广场A4单元1层
上海市,上海市,星巴克咖啡(大华三路店),大华三路81号美隆生活广场1层A5室
上海市,上海市,星巴克咖啡(汇商大厦店),民生路1286号102-103、105单元汇商大厦1层丁香路口
上海市,上海市,星巴克咖啡(东海店),延安东路588号东海商业中心1层
上海市,上海市,星巴克咖啡(虹桥南丰城二店),遵义路100号虹桥南丰城B座B1层101单元
上海市,上海市,星巴克咖啡(殷高西路店),殷高西路333号3-152、3-153单元
上海市,上海市,星巴克咖啡(汇智国际店),金科路3057号汇智国际商业中心F1层
上海市,上海市,星巴克咖啡(绿色米兰广场店),国权路73号绿色米兰广场1层
上海市,上海市,星巴克咖啡(钦州北路店),田尚坊钦州北路238-240号
上海市,上海市,星巴克咖啡(延安西路店),新华路519号18室(近定西路)
上海市,上海市,星巴克咖啡(政立路店),政立路477号创智科技中心1层
上海市,上海市,星巴克咖啡(公平路店),公平路36号B1层3-2单元
上海市,上海市,星巴克咖啡(利津路店),利津路1275-1277号1层
上海市,上海市,星巴克咖啡(大柏树店),汶水东路351号1876老站创意园1幢101-102室
上海市,上海市,星巴克咖啡(达安花园店),长寿路1007号、1009号和999弄4号底层A室部分区域
上海市,上海市,星巴克咖啡(浦东星河湾店),锦绣路2580号星河湾商业街1号101
上海市,上海市,星巴克咖啡(南翔五彩城店),宝翔路801号118单元上海华润五彩城购物中心
上海市,上海市,星巴克咖啡(上海火车站北广场店),秣陵路303号上海站1F层
上海市,上海市,星巴克咖啡(聚丰园路店),聚丰园路91弄1号楼116-117室
上海市,上海市,星巴克咖啡(金桥国际店),张杨路3611弄2号金桥国际商业广场2座2层212-214、217-218室
上海市,上海市,星巴克咖啡(静安嘉里中心南区),延安中路1218号嘉里中心商场B2层6室
上海市,上海市,星巴克咖啡(田林宾馆店),田林路1号6幢第1-2层C区
上海市,上海市,星巴克咖啡(汇融天地店),曹杨路555号汇融天地A座F1层
上海市,上海市,星巴克咖啡(斜土路店),南丹东路8号第1层101室
上海市,上海市,星巴克咖啡(上海湾店),浦东南路1138号上海湾1层181-184
上海市,上海市,星巴克咖啡(赵巷店),沪青平公路2888号百联奥特莱斯广场1层A5-100
上海市,上海市,星巴克咖啡(海洋大厦店),延安东路550号海洋大厦1层(近浙江中路)
上海市,上海市,星巴克咖啡(碧波路店),碧波路889号E106-E107
上海市,上海市,星巴克咖啡(宏伊广场店),南京东路299号宏伊国际广场2层S-215单元(近九江路)
上海市,上海市,星巴克咖啡(丽园路店),丽园路口蒙自路169号
上海市,上海市,星巴克咖啡(上海滩国际大厦店),黄浦路99号上海滩国际大厦1层111室
上海市,上海市,星巴克咖啡(都市总部大楼店),西藏中路168号都市总部大楼2层202室
上海市,上海市,星巴克咖啡(虹桥国际商务广场店),合川路2679号(虹桥国际商务广场B座103室)
上海市,上海市,星巴克咖啡(晨达广场店),巨峰路1058弄1号新紫茂广场F1层
上海市,上海市,星巴克咖啡(联洋广场店),芳甸路300号联洋广场1层
上海市,上海市,星巴克咖啡(江桥万达店),金沙江西路1051弄江桥万达广场1层100号1100单元
上海市,上海市,星巴克咖啡(8号桥店),建国中路10号8号桥1期
上海市,上海市,星巴克咖啡(真华路店),真华路928号1层101号
上海市,上海市,星巴克咖啡(美兰湖店),罗芬路1088号世纪联华1层
上海市,上海市,星巴克咖啡(锦延路店),锦延路219号(近上海科技馆)
上海市,上海市,星巴克咖啡(南车站路店),南车站路564号保屯路浦西世博园区F栋
上海市,上海市,星巴克咖啡(宝地广场店),大连路688号宝地广场A座102单元
上海市,上海市,星巴克咖啡(宝山路店),宝山路202号(近地铁4号线宝山路站)
上海市,上海市,星巴克咖啡(畹町路店),畹町路118-122号
上海市,上海市,星巴克咖啡(人民坊店),淮海中路835号1-3层(人民坊)
上海市,上海市,星巴克咖啡(朱家角尚都里店),朱家角镇新风路268弄2号1层101-102室和2层1-2(03)A室
上海市,上海市,星巴克咖啡(昭化路店),定西路1026号
上海市,上海市,星巴克咖啡(兴业太古汇店),南京西路789号兴业太古汇N110-N201
上海市,上海市,星巴克咖啡(松江颐思殿广场店),松东路219号颐思殿广场1层
上海市,上海市,星巴克咖啡(嘉定疁城国际店),塔城路295号
上海市,上海市,星巴克咖啡(文峰广场店),张杨北路801号文峰广场F1层
上海市,上海市,星巴克咖啡(越界店),田林路140号越界创意产业园1层
上海市,上海市,星巴克咖啡(共康路店),共和新路5000弄5号绿地风尚天地广场1层105-107室
上海市,上海市,星巴克咖啡(五月花生活广场店),芷江西路518号五月花生活广场1层101单元及2层201单元和239单元
上海市,上海市,星巴克咖啡(金沙广场店),祁连山南路619号金沙和美广场1层
上海市,上海市,星巴克咖啡(武康路店),武康路420号1层
上海市,上海市,星巴克咖啡(中信店),南京西路1168号中信泰富广场B1层LG12单元(近陕西北路)
上海市,上海市,星巴克咖啡(张江创新园店),牛顿路350号10号楼IBM大厦1层109单元
上海市,上海市,星巴克咖啡(静安门大厦店),安远路555号玫琳凯大厦1层
上海市,上海市,星巴克咖啡(上海高岛屋百货),虹桥路1438号上海高岛屋百货1F层
上海市,上海市,星巴克咖啡(梅川路店),梅川路1297号
上海市,上海市,星巴克咖啡(多媒体谷店),多媒体谷产业园广中西路777弄65号102室
上海市,上海市,星巴克咖啡(统一企业大厦店),天山西路568号统一企业大厦1幢105-106号
上海市,上海市,星巴克咖啡(越秀大厦店),福山路388号越秀大厦101室(近浦电路)
上海市,上海市,星巴克咖啡(徐汇苑店),中山南二路1089号徐汇苑大厦1层101室
上海市,上海市,星巴克咖啡(恒基名人大厦店),南京东路300号恒基名人购物中心F1层L113、L215室
上海市,上海市,星巴克咖啡(联强国际店),天山西路1068号联强国际A栋1C单元(近协和路)
上海市,上海市,星巴克咖啡(北美广场店),昆明路508号安莉芳大厦1层106-107单元
上海市,上海市,星巴克咖啡(金谊广场店),上南路4467弄20号中房金谊广场1层101-1室
上海市,上海市,星巴克咖啡(汤臣国贸大厦店),基隆路1号汤臣国际贸易大厦
上海市,上海市,星巴克咖啡(仙乐斯店),南京西路388号仙乐斯广场F1层
上海市,上海市,星巴克咖啡(汇亚大厦店),陆家嘴环路1233号汇亚大厦1层大厅
上海市,上海市,星巴克咖啡(日月光办公楼店),徐家汇路610号日月光中心1层1F-A08单元
上海市,上海市,星巴克咖啡(南洋商业银行大厦店),世纪大道800号南洋商业银行大厦1层
上海市,上海市,星巴克咖啡(长风大悦城),大渡河路178号长风大悦城L101
上海市,上海市,星巴克咖啡(西藏路店),西藏中路289号1层
上海市,上海市,星巴克咖啡(东银中心店),红宝石路500号东银中心1层106
上海市,上海市,星巴克咖啡(甜爱路店),甜爱路四川北路2258号
上海市,上海市,星巴克咖啡(淮海东路店),淮海东路68号1层
上海市,上海市,星巴克咖啡(美罗大厦店),天钥桥路30号美罗大厦1层
上海市,上海市,星巴克咖啡(浦东嘉里城店),花木路1378号浦东嘉里城商场1层L110
上海市,上海市,星巴克咖啡(永安店),南京东路635号永安百货1层
上海市,上海市,星巴克咖啡(巴黎春天成山店),成山路1993号巴黎春天(成山店)F1层
上海市,上海市,星巴克咖啡(耀华路店),世博大道1200号梅赛德斯-奔驰文化中心1层西门L111
上海市,上海市,星巴克咖啡(上海南站店),盛泰奥特莱斯南广场1层B区南1-B25号
上海市,上海市,星巴克咖啡(长城大厦店),中山北路3018号长城大厦1层1-3单元
上海市,上海市,星巴克咖啡(张杨路店),张杨路655号福兴大厦1层
上海市,上海市,星巴克咖啡(江苏路店),江苏路458号舜元企业发展大厦1层(近宣化路)
上海市,上海市,星巴克咖啡(800秀店),常德路800号800秀近昌平路
上海市,上海市,星巴克咖啡(明天广场店),南京西路399号明天广场1层(近黄陂北路)
上海市,上海市,星巴克咖啡(申大厦店),汉口路266号申大厦102单元
上海市,上海市,星巴克咖啡(桥梓湾店),公园路700号东方商厦1层(近聚星街)
上海市,上海市,星巴克咖啡(宝山安信店),牡丹江路1238号安信商业广场B区1层
上海市,上海市,星巴克咖啡(蔡伦路店),蔡伦路780张江药谷大厦1层
上海市,上海市,星巴克咖啡(嘉汇店),美城天地天钥桥路323号
上海市,上海市,星巴克咖啡(红房子店),陕西南路37号1-3层(近长乐路)
上海市,上海市,星巴克咖啡(创智店),淞沪路252-256号A1-24
上海市,上海市,星巴克咖啡(远中风华店),昌化路68号
上海市,上海市,星巴克咖啡(外高桥店),加枫路24号
上海市,上海市,星巴克咖啡(兆丰店),江苏路369号兆丰国际大厦1层近愚园路
上海市,上海市,星巴克咖啡(威海路店),威海路433、439号
上海市,上海市,星巴克咖啡(南方商城店),沪闵路7388号百联南方购物中心1F层
上海市,上海市,星巴克咖啡(汾阳路店),汾阳路138号上海轻科大厦1层3单元
上海市,上海市,星巴克咖啡(新华店),定西路475号
上海市,上海市,星巴克咖啡(永业公寓店),徐家汇路193-199号
上海市,上海市,星巴克咖啡(中山公园店),长宁路999号兆丰广场F1层
上海市,上海市,星巴克咖啡(华山国际店),华山路1568财瑞大厦1层102室
上海市,上海市,星巴克咖啡(上海影城店),新华路160号上海影城1层001号
上海市,上海市,星巴克咖啡(定西路店),定西路1328号巴黎春天百货1层
上海市,上海市,星巴克咖啡(中惠广场店),新金桥路1088号中惠广场1层B100室
上海市,上海市,星巴克咖啡(九六广场),东方路796号九六广场F1层153
上海市,上海市,星巴克咖啡(世茂广场店),南京东路829号南京路步行街世茂广场G05
上海市,上海市,星巴克咖啡(长泰金融店),世纪大道1589号长泰国际金融大厦1层7单元
上海市,上海市,星巴克咖啡(人民公园店),人民公园南京西路189号
上海市,上海市,星巴克咖啡(美丽华花园店),水城南路85号(近虹桥路)
上海市,上海市,星巴克咖啡(嘉定罗宾森店),城中路138号罗宾森购物广场L1-1、L2-1
上海市,上海市,星巴克咖啡(爱美高大厦店),淮海中路1325号爱美高大厦1层103室
上海市,上海市,星巴克咖啡(均瑶店),肇嘉浜路789均瑶国际广场1层
上海市,上海市,星巴克咖啡(吴江路店),吴江路128号(近石门一路)
上海市,上海市,星巴克咖啡(大同店),斜徐路593号1层
上海市,上海市,星巴克咖啡(吴中路店),吴中路1169号-1号
上海市,上海市,星巴克咖啡(金丰路店),金丰路447号
上海市,上海市,星巴克咖啡(瑞金路店),瑞金二路101-107号(近复兴中路)
上海市,上海市,星巴克咖啡(雁荡路店),雁荡路99号(近南昌路)
上海市,上海市,星巴克咖啡(虹梅路店),虹梅路3188-1号
上海市,上海市,星巴克咖啡(正大二店),陆家嘴西路168号正大广场1层(近东方明珠)
上海市,上海市,星巴克咖啡(七莘路店),七莘路3655号凯德七宝购物广场F1层
上海市,上海市,星巴克咖啡(白玉兰广场1F店),东长治路588号白玉兰广场商场LG1楼层LG1-M34商铺
上海市,上海市,星巴克咖啡(上海图书馆店),淮海中路1555号1幢1楼A部位
上海市,上海市,星巴克咖啡(东南华庭店),临沂北路150弄2号111-113室
上海市,上海市,星巴克咖啡(北翼生活馆店),永清路700号北翼生活馆1层
上海市,上海市,星巴克咖啡(新地中心店),申滨南路绍虹路218号新地中心1层101室
上海市,上海市,星巴克咖啡(淮海西路店),淮海西路1号第1层A单元
上海市,上海市,星巴克咖啡(虹桥南丰城一店),遵义路100号虹桥南丰城南区1层124号
上海市,上海市,星巴克咖啡(览海国际广场店),世纪大道160号览海国际广场1层
上海市,上海市,星巴克咖啡(同济晶度店),逸仙路23-1号1层A室
上海市,上海市,星巴克咖啡(森兰仁恒店),东煦路680号
上海市,上海市,星巴克咖啡(百联东郊店),沪南路2420号百联东郊购物中心F1层
上海市,上海市,星巴克咖啡(宏慧新汇园店),共和新路4750号城市新汇广场1层
上海市,上海市,星巴克咖啡(安亭新镇店),安亭新镇安诚路278号1层101单元
上海市,上海市,星巴克咖啡(光大会展店),漕宝路78号万商生活广场1层1001室
上海市,上海市,星巴克咖啡(汇暻生活广场店),鲁班路615号汇暻生活广场102-103室
上海市,上海市,星巴克咖啡(七宝老街店),横沥路108号1层101单元
上海市,上海市,星巴克咖啡(青浦吾悦广场店),淀山湖大道吾悦广场1号门1层
上海市,上海市,星巴克咖啡(光大会展店),漕宝路78号万商生活广场1层1001室
上海市,上海市,星巴克咖啡(汇暻生活广场店),鲁班路615号汇暻生活广场102-103室
上海市,上海市,星巴克咖啡(七宝老街店),横沥路108号1层101单元
上海市,上海市,星巴克咖啡(青浦吾悦广场店),淀山湖大道吾悦广场1号门1层
上海市,上海市,星巴克咖啡(富荟商业广场店),樱花路80弄1号
上海市,上海市,星巴克咖啡(上汽通用汽车店),申江路1500号上汽通用汽车新行政楼M层
上海市,上海市,星巴克咖啡(虹桥火车站出发区店),虹桥路2550号虹桥综合交通枢纽4层C4
上海市,上海市,星巴克咖啡(南汇工业园店),沪南公路8666弄16号研发楼1层101单元
上海市,上海市,星巴克咖啡(金领之都店),金海路1000号19号楼1层101室
上海市,上海市,星巴克咖啡(陆家嘴国际华城店),张杨路1553号
上海市,上海市,星巴克咖啡(北上海生活广场店),蕴川路1555号北上海广场1层1330-1389
上海市,上海市,星巴克咖啡(亿丰时代广场店),云台路800号亿丰时代广场1层131-133
上海市,上海市,星巴克咖啡(佛罗伦萨小镇),卓耀路58弄127号2层206-207室
上海市,上海市,星巴克咖啡(飞洲国际广场店),零陵路899号飞洲国际广场F1层
上海市,上海市,星巴克咖啡(申亚时代广场店),天山西路18号申亚时代广场1号楼1层101室
上海市,上海市,星巴克咖啡(金虹桥国际中心店),茅台路179号商场L1层L113号
上海市,上海市,星巴克咖啡(长江西路店),长江西路2211号易买得长江店1层
上海市,上海市,星巴克咖啡(三号湾店),国定路319号三号湾广场1层F135单元
上海市,上海市,星巴克咖啡(四行天地店),西藏北路18号四行天地105单元
上海市,上海市,星巴克咖啡(近铁城市广场店),真北路818号近铁城市广场B2层6-22单元
上海市,上海市,星巴克咖啡(亚龙国际广场店),金陵东路500号亚龙国际广场F1层102A
上海市,上海市,星巴克咖啡(虹桥万豪店),虹桥路2270号万豪大酒店A段101-1
上海市,上海市,星巴克咖啡(新淮海坊店),新·淮海坊1层1室
上海市,上海市,星巴克咖啡(陆家嘴软件园二店),东方路1217号陆家嘴金融服务广场1层100单元
上海市,上海市,星巴克咖啡(缤谷广场店),天山路341号缤谷广场1层102室
上海市,上海市,星巴克咖啡(八佰伴影城店),张杨路501号八佰伴2层
上海市,上海市,星巴克咖啡(中华艺术宫店),上南路161号中华艺术宫1层序厅
上海市,上海市,星巴克咖啡(同济联合广场店),彰武路18号101-201室
上海市,上海市,星巴克咖啡(大拇指店),芳甸路197号证大·大拇指广场1层
上海市,上海市,星巴克咖啡(上海大悦城南座),西藏北路166号上海大悦城南座L3层S316
上海市,上海市,星巴克咖啡(乐颂坊店),松汇中路568号B座乐颂坊1层
上海市,上海市,星巴克咖啡(由由世纪广场店),杨高南路428号由由世纪广场1号楼1层A单元
上海市,上海市,星巴克咖啡(品尊国际广场店),铜川路58弄21-22号品尊国际广场1层
上海市,上海市,星巴克咖啡(宏汇国际广场店),中山西路1602号宏汇国际广场B座1层2室
上海市,上海市,星巴克咖啡(虹桥天都店),天山路919号虹桥天都101
上海市,上海市,星巴克咖啡(远东国际店),仙霞路317号远东国际广场B栋1层
上海市,上海市,星巴克咖啡(环球金融店),世纪大道100号上海环球金融中心商场101室
上海市,上海市,星巴克咖啡(财富时代店),长寿路136号财富时代大厦1层
上海市,上海市,星巴克咖啡(青浦城中北路店),城中北路79号附1-2层
上海市,上海市,星巴克咖啡(五角场万达B1店),淞沪路77号B1层B1058室
上海市,上海市,星巴克咖啡(恒汇大厦店),天目西路437-439号恒汇国际大厦1层
上海市,上海市,星巴克咖啡(周浦绿地缤纷广场店),年家浜路238号1楼101单元
上海市,上海市,星巴克咖啡(白丽广场店),武威路1118号115-116室
上海市,上海市,星巴克咖啡(证大五道口店),民生路1199号证大五道口广场1号楼105A
上海市,上海市,星巴克咖啡(陆家嘴世纪金融广场店),杨高南路759号陆家嘴世纪金融广场1层03A单元
上海市,上海市,星巴克咖啡(美臣店),淮海中路935号美臣大楼1-2层(近陕西南路)
上海市,上海市,星巴克咖啡(世纪商贸店),长乐路989号世纪商贸广场1层
上海市,上海市,星巴克咖啡(威隆大厦店),曹安公路1688号威隆大厦1层4单元
上海市,上海市,星巴克咖啡(朗香嘉年华店),华秋路58弄21-22号1层
上海市,上海市,星巴克咖啡(永丰国际广场店),宛平南路88号
上海市,上海市,星巴克咖啡(协信星光广场北区店),江场路1288号协信星光广场1层S101A
上海市,上海市,星巴克咖啡(质子重离子医院店),康新公路4365号1层
上海市,上海市,星巴克咖啡(龙盛广场店),都市路3759号龙盛国际商业广场内
上海市,上海市,星巴克咖啡(上海科技馆站店),世纪大道2002号B1层KJ8-9
上海市,上海市,星巴克咖啡(陆家嘴软件园店),峨山路91弄98号陆家嘴软件园1号楼1层
上海市,上海市,星巴克咖啡(山姆会员店),高科西路2110号一层(近下南路)
上海市,上海市,星巴克咖啡(青浦凯特利店),公园路458号101室-02
上海市,上海市,星巴克咖啡(越虹广场店),虹漕路88号H88越虹广场B座1楼
上海市,上海市,星巴克咖啡(柏树大厦店),中山北一路1230号A102-1室
上海市,上海市,星巴克咖啡(互联宝地店),黄兴路221号互联宝地C3107室
上海市,上海市,星巴克咖啡(松江涞坊路店),涞坊路1000号101-1单元
上海市,上海市,星巴克咖啡(中银大厦店),银城中路200号中银大厦1楼
上海市,上海市,星巴克咖啡(沪松公路店),沪松公路1177号
上海市,上海市,星巴克咖啡(襄阳公园店),淮海中路1008号
上海市,上海市,星巴克咖啡(新江湾城生活广场店),国浩路231号101-102室
上海市,上海市,星巴克咖啡(周浦医院店),周园路1500号门诊大厅
上海市,上海市,星巴克咖啡(汇京国际广场店),淮海西路555号汇京国际广场F1层103单元
上海市,上海市,星巴克咖啡(嘉尚坊店),嘉怡路261号嘉尚坊1层
上海市,上海市,星巴克咖啡(中关村虹桥创新中心店),临虹路365号1A号
上海市,上海市,星巴克咖啡(君欣时代广场店),控江路1777号1层L119室
上海市,上海市,星巴克咖啡(老船坞店),中山西路262号32幢第1层F1-9单元
上海市,上海市,星巴克咖啡(百联南方购物中心),沪闵路7388号百联南方购物中心2F层
上海市,上海市,星巴克咖啡(曹路宝龙店),金海路2505号宝龙城市广场1期步行街1层
上海市,上海市,星巴克咖啡(西郊友谊店),仙霞西路88号百联西郊购物中心F1层1210
上海市,上海市,星巴克咖啡(北蔡唐人幸福里店),陈春路109号唐人幸福里1层
上海市,上海市,星巴克咖啡(城隍珠宝店),丽水路88号1层116单元
上海市,上海市,星巴克咖啡(万辉国际广场店),虹梅南路863号6幢1层01室
上海市,上海市,星巴克咖啡(奉贤漕河泾店),金海公路6055号29号楼第1层东2单元
上海市,上海市,星巴克咖啡(番禺路店),番禺路1号龙之梦大厦对面
上海市,上海市,星巴克咖啡(彩生活时代广场店),莘福路288号彩生活时代广场店一层106单元
上海市,上海市,星巴克咖啡(长宁来福士店),长宁路1123号长宁来福士东区6层24-25号
上海市,上海市,星巴克咖啡(绿源天地广场店),世界路133号和758号101室
上海市,上海市,星巴克咖啡(百联临沂购物中心店),临沂路140号百联社区商业中心1层
上海市,上海市,星巴克咖啡(君庭广场店),三门路242号国安路200号君庭广场1-2层
上海市,上海市,星巴克咖啡(医谷现代商务园店),天雄路588弄1-28号13幢1层108单元
上海市,上海市,星巴克咖啡(建发国际大厦店),秦皇岛路58号1室
上海市,上海市,星巴克咖啡(新虹桥大厦店),娄山关路55号2幢1层106单元
上海市,上海市,星巴克咖啡(松江体育馆店),乐都支路与荣乐中路交叉口
上海市,上海市,星巴克咖啡(凯滨国际大厦店),凯滨路199号第1层101单元
上海市,上海市,星巴克咖啡(凯迪·新都汇店),翔殷路1088号凯迪·新都汇F1
上海市,上海市,星巴克咖啡(城开国际大厦店),虹桥路355号城开国际大厦1层107室
上海市,上海市,星巴克咖啡(越商大厦店),万航渡路333号1层1单元
上海市,上海市,星巴克咖啡(虹桥万科中心5号楼B2店),申长路988弄虹桥万科中心LG2层
上海市,上海市,星巴克咖啡(睿园路店),斜土东路90号1-2层
上海市,上海市,星巴克咖啡(陆家嘴创业街区店),南洋泾路555号1层
上海市,上海市,星巴克咖啡(太平洋森活店),淞沪路199号太平洋森活地下广场B1层
上海市,上海市,星巴克咖啡(上海友谊商店店),真光路1219号1层F1-B2室区
上海市,上海市,星巴克咖啡(鸿运大厦店),武宁路503号1层102室
上海市,上海市,星巴克咖啡(海泰时代店),武进路289号1层108室
上海市,上海市,星巴克咖啡(东方渔人码头店),杨树浦路1072号东方渔人码头购物中心1层101-1室
上海市,上海市,星巴克咖啡(唐镇来安路店),来安路686号E2033
上海市,上海市,星巴克咖啡(宝山同济创园店),淞良路10号101-1
上海市,上海市,星巴克咖啡(嘉定汽车城创新港店),安拓路56弄13号汽车城创新港13号楼
上海市,上海市,星巴克咖啡(五龙广场店),光星路1399号五龙商业广场1层108单元
上海市,上海市,星巴克咖啡(建滔广场店),新泾镇通协路269号建滔广场商业1层130室
上海市,上海市,星巴克咖啡(龙吴路店),龙吴路5555号108-109单元
上海市,上海市,星巴克咖啡(控江旭辉MALL店),控江路2066号旭辉商业广场1号楼1层2号
上海市,上海市,星巴克咖啡(龙之梦雅仕大厦店),凯旋路399号龙之梦雅仕达大厦1幢1层102室
上海市,上海市,星巴克咖啡(常德路店),常德路1042号1层
上海市,上海市,星巴克咖啡(尼克互盛大楼店),虹许路528号尼克互盛大楼7号楼
上海市,上海市,星巴克咖啡(外滩SOHO店),中山东二路58号的外滩SOHO、B1层7室
上海市,上海市,星巴克咖啡(新华联购物中心店),申滨路473号新华联购物中心南区1层L1-9号
上海市,上海市,星巴克咖啡(长风景畔广场店),大渡河路168弄136号长风景畔广场1层101A室
上海市,上海市,星巴克咖啡(殷高西路地铁站店),殷高西路10弄2号101、102-1室
上海市,上海市,星巴克咖啡(新壹坊店),银春路2152号1层2-105室
上海市,上海市,星巴克咖啡(川沙金汇广场店),华夏东路2255号金汇广场F1层03铺
上海市,上海市,星巴克咖啡(北翼生活广场店),水产路2499号北翼生活广场B栋1层111室
上海市,上海市,星巴克咖啡(合生财富广场店),大连路周家嘴路1089号合生财富广场
上海市,上海市,星巴克咖啡(三湘世纪花城店),逸仙路519号9单元1-2层
上海市,上海市,星巴克咖啡(嘉杰国际商业广场店),四川北路1689号嘉杰国际广场1层110、202室
上海市,上海市,星巴克咖啡(宝燕商城店),春申路3333号1层149室
上海市,上海市,星巴克咖啡(长阳路欧尚店),长阳路1750号欧尚购物中心F1
上海市,上海市,星巴克咖啡((共江路家乐福店),共和新路5219号宝山购物中心1层
上海市,上海市,星巴克咖啡(凉城店),车站南路330弄2号、6号第1-2层的4839F01059、483902002单元
上海市,上海市,星巴克咖啡(永德弘基广场店),永德路419号弘基时尚生活中心1层109室
上海市,上海市,星巴克咖啡(凌空广场店),金钟路968号的凌空SOHO广场2号楼2-106室
上海市,上海市,星巴克咖啡(徐汇万科中心店),定安路55号A栋101A号
上海市,上海市,星巴克咖啡(虹桥枢纽),虹桥路2550号虹桥枢纽F5层3F-C4
上海市,上海市,星巴克咖啡(惠南禹洲商业广场店),沪南公路9900号惠南禹洲商业广场1层9876单元
上海市,上海市,星巴克咖啡(协信星光广场南区店),寿阳路99号协信星光广场南区1层101A
上海市,上海市,星巴克咖啡(东方国信店),福泉北路388号1号办公楼(B座)1楼102室
上海市,上海市,星巴克咖啡(浦东机场T2国内C50号店),启航路900号候机楼T2禁区D6号
上海市,上海市,星巴克咖啡(平高国际广场店),安远路128号平高国际广场1层1室
上海市,上海市,星巴克咖啡(百联滨江店),宁国路218号百联滨江购物中心L1层1A-024室
上海市,上海市,星巴克咖啡(申虹广场店),四川北路1350号信泰富申虹广场1层110-112室
上海市,上海市,星巴克咖啡(亚繁生活时尚广场店),莘松路1266号亚繁生活时尚广场F1层1-21-22号
上海市,上海市,星巴克咖啡(迪美广场店),人民大道221号B1层236-238号单元
上海市,上海市,星巴克咖啡(达安广场店),延安中路823号
上海市,上海市,星巴克咖啡(湾谷科技园店),国权北路1688弄63号(湾谷科技园)
上海市,上海市,星巴克咖啡(万都店),兴义路8号万都中心大厦1楼S102、S106商铺
上海市,上海市,星巴克咖啡(久金购物中心店),张杨路3918号1层3室、2层3室
上海市,上海市,星巴克咖啡(台北风情街店),白银路288弄20栋19号1层107室
上海市,上海市,星巴克咖啡(优客百盛店),天山路889号优客百盛城市广场1层1E04室
上海市,上海市,星巴克咖啡(高桥红坊店),张杨北路5770、5758号
上海市,上海市,星巴克咖啡(尚品中心1F店),通协路272号虹桥国际商务花园尚品中心1层
上海市,上海市,星巴克咖啡(江苏大厦店),崂山东路526号江苏大厦1层
上海市,上海市,星巴克咖啡(虹桥西航站店),申达一路1号虹桥机场T2候机楼C3-M2-S28近6号出口
上海市,上海市,星巴克咖啡(吴淞口国际邮轮港店),宝杨路1号客运大楼1层上海吴淞口国际邮轮港
上海市,上海市,星巴克咖啡(金融街静安中心店),万航渡路750号金融街(静安中心)
上海市,上海市,星巴克咖啡(上海大众店),于田路7号2号楼1F-1单元
上海市,上海市,星巴克咖啡(海上传奇广场店),御桥路1949号vanke2049海上传奇F1层L106
上海市,上海市,星巴克咖啡(中金国际广场店),漕溪北路331号中金国际广场A座1层3
上海市,上海市,星巴克咖啡(文通大厦店),昆明路739号文通大厦1层101单元
上海市,上海市,星巴克咖啡(中暨大厦店),南翔镇银翔路819弄1号4单元中暨大厦
上海市,上海市,星巴克咖啡(松江创新生活广场店),莘砖公路328号棕榈广场1层
上海市,上海市,星巴克咖啡(临港豪生酒店店),新元南路555弄1-60号豪生酒店1层
上海市,上海市,星巴克咖啡(中原城市广场店),国和路701号5105室
上海市,上海市,星巴克咖啡(紫竹大厦店),芳甸路1088号紫竹国际大厦1层
上海市,上海市,星巴克咖啡(易家中心店),城河路230号易家中心3-101
上海市,上海市,星巴克咖啡(陆家嘴公馆店),张杨路1550号陆家嘴公馆
上海市,上海市,星巴克咖啡(黄浦永新广场店),南京西路128号永新广场1层
上海市,上海市,星巴克咖啡(乐虹坊店),虹井路288号乐虹坊1层103单元
上海市,上海市,星巴克咖啡(中融广场店),浦东南路1068号中融国际商城1层09A室
上海市,上海市,星巴克咖啡(红太阳商业广场店),通河路537-1、539号红太阳商业广场1层(呼玛路口)
上海市,上海市,星巴克咖啡(南桥新都汇店),环城东路681号南桥·新都汇1层
上海市,上海市,星巴克咖啡(国际港务大厦店),东大名路358号国际港务大厦1层
上海市,上海市,星巴克咖啡(嘉实生活广场店),嘉松北路6130号
上海市,上海市,星巴克咖啡(展想大厦店),祖冲之路2290弄展想广场1层
上海市,上海市,星巴克咖啡(诺亚新天地店),牡丹江路318号诺亚新天地1F层
上海市,上海市,星巴克咖啡(珠江创意中心店),灵石路695号珠江创意中心3号楼1层大堂
上海市,上海市,星巴克咖啡(静安紫苑店),江宁路388号静安紫苑1-2层
上海市,上海市,星巴克咖啡(市北高新园区店),江场三路238号1层
上海市,上海市,星巴克咖啡(永银大厦店),西藏南路218号永银大厦1层
上海市,上海市,星巴克咖啡(恒基688广场店),南京西路恒基688广场L106室
上海市,上海市,星巴克咖啡(科产大厦店),宜山路900号科产大厦A座1层(近桂平路)
上海市,上海市,星巴克咖啡(东方维京大厦店),仙霞路333号东方维京大厦1层S105单元
上海市,上海市,星巴克咖啡(时尚中心店),杨树浦路2866号上海国际时尚中心1层
上海市,上海市,星巴克咖啡(未来资产大厦店),陆家嘴环路166号未来资产大厦1层102室
上海市,上海市,星巴克咖啡(通用电气店),张江高科技园区华佗路1号2号办公楼1层A区
上海市,上海市,星巴克咖啡(钦江路店),钦江路102号(虹漕路与钦江路交汇处)
上海市,上海市,星巴克咖啡(东方浮庭店),世纪大道55号东方浮庭2F-4室
上海市,上海市,星巴克咖啡(洲际中心店),裕通路100号宝矿洲际商务中心1层
上海市,上海市,星巴克咖啡(花旗店),花园石桥路33号花旗集团大厦1层
上海市,上海市,星巴克咖啡(虹桥枢纽),虹桥路2550号T2航站楼3层出发区
上海市,上海市,星巴克咖啡(明珠店),肇嘉浜路212号上海明珠大饭店大堂
上海市,上海市,星巴克咖啡(浦项店),世纪大道1600号陆家嘴商务广场(近浦电路)
上海市,上海市,星巴克咖啡(新都会店),莲花南路1500号梅陇镇新都会15-B单元
上海市,上海市,星巴克咖啡(上海书城店),福州路465号上海书城2层东侧
上海市,上海市,星巴克咖啡(时代金融店),银城中路68号时代金融中心2层
上海市,上海市,星巴克咖啡(新金桥店),西藏中路579-581号
上海市,上海市,星巴克咖啡(森茂店),陆家嘴环路1000号恒生银行大厦1层
上海市,上海市,星巴克咖啡(碧瑶店),延安西路1166号碧瑶行政公寓1层
上海市,上海市,星巴克咖啡(闸北太平洋店),天目西路218号太平洋百货1层A-1号
上海市,上海市,星巴克项目,沪太路799号1号楼3楼
上海市,上海市,代购星巴克(上海万象城店),吴中路1799号万象城A座2层
上海市,上海市,星巴克大街店,Y383(军工路)
上海市,上海市,STARBUCKS RESERVE ROASTERY,南京西路789号兴业太古汇F2层
上海市,上海市,STARBUCKS COFFE,江场二路77、79号
上海市,上海市,连咖啡CoffeeBox(上海玉树路店),永丰街道玉树路2559号1幢1层166号铺位
重庆市,重庆市,星巴克咖啡(丁香店),丁香路200号
重庆市,重庆市,星巴克咖啡(兴科大道店),兴科一路与兴科大道交叉口东北150米
重庆市,重庆市,星巴克咖啡(重庆天地臻选店),瑞天路156号重庆天地高村B103-2
重庆市,重庆市,星巴克(新光天地3店),红锦大道99号新光天地B区6层
重庆市,重庆市,星巴克(美邻汇店),大竹林斑竹路19号金科美邻汇2栋L-14
重庆市,重庆市,星巴克(重庆万象城2店),谢家湾正街51号万象城LG层
重庆市,重庆市,星巴克(南坪万达2店),江南大道8号附1号南坪万达广场地面1层
重庆市,重庆市,星巴克咖啡(金融城二号店),东升门路与聚贤街交叉口西南100米
重庆市,重庆市,星巴克咖啡(沙坪坝U城天街2店),大学城北路97号龙湖U城天街B馆
重庆市,重庆市,星巴克咖啡(赛博店),渝州路与石桥铺立交桥交叉口东50米
重庆市,重庆市,星巴克咖啡(金源店),北滨路304附近
重庆市,重庆市,星巴克(华茂中心店),昌州大道东段777号国际华茂中心C馆1层
重庆市,重庆市,星巴克咖啡(沙磁巷店),磁器口沙滨路国富沙磁巷
重庆市,重庆市,星巴克咖啡(协信时代店),江南大道28号协信星光时代广场4层002B-004B号
重庆市,重庆市,星巴克咖啡(企业天地店),瑞天路10号嘉陵中心A馆L1层112号
重庆市,重庆市,臻选星巴克,解放碑协信星光天地一楼
重庆市,重庆市,星巴克咖啡(新世纪百货奥特莱斯),建新北路一支路3号附2-3号新世纪百货奥特莱斯F1层
重庆市,重庆市,星巴克咖啡(重庆东原悦荟店),红石路37号东原悦荟PARK购物中心1层
重庆市,重庆市,星巴克咖啡(奥园城市天地店),水云路17号奥园广场1层
重庆市,重庆市,星巴克咖啡(重庆涪陵泽胜店),兴华中路25号
重庆市,重庆市,星巴克咖啡(解放碑协信星光店),五一路99号协信星光广场1层
重庆市,重庆市,星巴克咖啡(财信广场店),城西大街1号
重庆市,重庆市,星巴克咖啡(国金中心店),市江北两江新区江北嘴中央商务区IFS国金中心一层
重庆市,重庆市,星巴克咖啡(重庆泽科星泽汇店),群慧路7号泽科·星泽汇1层L1-30号
重庆市,重庆市,星巴克咖啡(K-Land门店),奥体路1号中新城上城1层小时代
重庆市,重庆市,星巴克咖啡(雄风百货店),城南嘉陵风情步行街33号雄风百货广场1层
重庆市,重庆市,星巴克咖啡(重庆北站),昆仑大道51号附近重庆北站3F层
重庆市,重庆市,星巴克(大坪时代天街D馆店),时代天街17号龙湖时代天街D馆2层
重庆市,重庆市,星巴克咖啡(凯德广场店),杨家坪西郊三村2号凯德广场1层37号
重庆市,重庆市,星巴克咖啡(解放碑远东百货店),邹容路68号远东百货LG层
重庆市,重庆市,星巴克咖啡(T3航站楼),渝航大道T3航站楼3F层L3E37、L3E91
重庆市,重庆市,星巴克咖啡(T3航站楼),渝航大道T3航站楼4F层L4E10
重庆市,重庆市,星巴克咖啡(万达广场北碚店),冯时行路302号万达广场1号门F3层
重庆市,重庆市,星巴克咖啡(龙湖源著天街店),福康路25号龙湖源著天街地上1层1F-01
重庆市,重庆市,星巴克咖啡(凯德广场店),小龙坎新街29号凯德广场F1层
重庆市,重庆市,星巴克(万州万达广场店),北滨大道二段998号5幢万达广场1层2号门
重庆市,重庆市,星巴克咖啡(重庆西城天街店),珠江路48号龙湖西城天街购物广场A馆1层
重庆市,重庆市,星巴克咖啡(巴南万达店),龙海大道5号巴南万达广场1层
重庆市,重庆市,星巴克咖啡(紫荆商业广场店),黄泥塝红黄路121号紫荆商业广场5号楼1层
重庆市,重庆市,星巴克咖啡(长嘉汇店),泰昌路69号长嘉汇购物中心1-2层
重庆市,重庆市,星巴克咖啡(万象城店),谢家湾街道谢家湾正街51号万象城LG层
重庆市,重庆市,星巴克咖啡(龙湖·U城天街A馆店),龙湖重庆U城天街A馆
重庆市,重庆市,星巴克咖啡(金贸中心店),栖霞路16号融创金贸时代3栋
重庆市,重庆市,星巴克咖啡(T2航站楼),两路镇双凤桥街道T2航站楼3F层C-023
重庆市,重庆市,星巴克咖啡(香江财富中心店),洪湖东路1号重庆财富购物中心1层L1-25-2-26单元
重庆市,重庆市,星巴克咖啡(重庆北站),昆仑大道51号附近重庆北站2F层
重庆市,重庆市,星巴克咖啡(龙湖重庆北城天街),北城天街6、8、10号龙湖重庆北城天街F2层
重庆市,重庆市,星巴克咖啡(龙湖时代天街店),长江二路174号龙湖时代天街C馆1层
重庆市,重庆市,星巴克咖啡(重庆大学城熙街店),大学城景苑路8号卓越熙街1号楼1层
重庆市,重庆市,星巴克咖啡(天和里店),[]
重庆市,重庆市,星巴克咖啡(九街店),北城天街48号1层
重庆市,重庆市,星巴克咖啡(重庆英利国际广场店),大坪正街19号英利国际广场1层(近大坪七牌坊公交车站)
重庆市,重庆市,星巴克咖啡(重庆时代天街店),大坪正街38号时代天街1层
重庆市,重庆市,星巴克咖啡(重庆大融城店),观音桥步行街8号大融城购物中心2层近未来国际大厦
重庆市,重庆市,星巴克咖啡(SM广场店),余松一支路冉家坝SM广场LG层
重庆市,重庆市,星巴克咖啡(重庆金港国际店),两路镇胜利路129号喜地山·金港国际LG层
重庆市,重庆市,星巴克咖啡(沙坪坝煌华新纪元店),三峡广场步行街6号煌华新纪元购物广场1层
重庆市,重庆市,星巴克咖啡(重庆东源1891店),南滨路80号东原1891项目1层
重庆市,重庆市,星巴克咖啡(重庆盛汇新世纪店),江南坪北路8号盛汇广场新世纪百货1层
重庆市,重庆市,星巴克咖啡(新天泽国际广场店),松青路1099号新天泽广场LG002
重庆市,重庆市,星巴克咖啡(重庆富安百货店),西郊路2号附2号富安百货1层
重庆市,重庆市,星巴克咖啡(星光天地店),金开大道68号协信星光天地1层
重庆市,重庆市,星巴克咖啡(国泰广场店),解放碑邹容路100号重庆时代广场F1层
重庆市,重庆市,星巴克(江北北城天街店),北城天街6-10号北城天街购物广场3层1号
重庆市,重庆市,星巴克咖啡(重庆江北机场店),T2A航站楼隔离区A指廊
重庆市,重庆市,星巴克咖啡(洪崖洞店),沧白路58
重庆市,重庆市,星巴克咖啡(西部奥特莱斯店),奥特莱斯路1号西部奥特莱斯购物广场A馆1F层A102
重庆市,重庆市,星巴克(茂业店),建新北路16号附7号茂业百货1层
重庆市,重庆市,星巴克咖啡(重庆晶郦馆店),新南路160号晶郦馆1层
重庆市,重庆市,星巴克咖啡(重庆万达店),南城大道8号万达广场万达百货LGW-13号
重庆市,重庆市,星巴克咖啡(上海城店),南坪西路58号百联南岸上海城购物中心1层
重庆市,重庆市,星巴克咖啡(王府井百货沙坪坝店),小龙坎新街49号王府井百货平街1层(近三峡广场)
重庆市,重庆市,星巴克咖啡(重庆商业大厦店),邹容路109号商业大厦2层
重庆市,重庆市,星巴克(渝中环球金融中心店),民族路188号环球金融中心B1层B08-B08A单元
四川省,成都市,星巴克咖啡,一环路北一段141号附近
四川省,成都市,星巴克咖啡(金融城店),天府大道北段966号天府国际金融中心8号楼内(近建筑西南设计研究院)
四川省,成都市,星巴克(天府地铁中心城店),天府广场B1层
四川省,成都市,星巴克(华为研究基地U6店),西源大道1899号
四川省,成都市,星巴克(武侯大悦城店),大悦路518号大悦城购物中心B区1F-41号
四川省,成都市,星巴克(华为研究基地U3店),西源大道1899号华为成都研究所u3餐厅
四川省,成都市,星巴克(天府广场店),西御街3号领地中心靠近肯德基和壹丁咖啡
四川省,成都市,星巴克咖啡(领地环球金融中心),天府二街151号领地环球金融中心一层
四川省,成都市,星巴克咖啡(天府金融大厦店),天府二街99号天府金融大厦A座
四川省,成都市,星巴克咖啡(博瑞创意成都店),三色路38号博瑞创意成都大厦A座1层
四川省,成都市,星巴克咖啡(润扬双铁广场店),天府路与学园路交叉口北100米
四川省,成都市,星巴克咖啡(金控中心万科店),云华路50号6栋1单元1层2号
四川省,成都市,星巴克咖啡(新尚天地店),学府路西50米
四川省,成都市,星巴克咖啡(绿地伊藤广场店),樱花街383号东洪广厦2栋2单元2楼
四川省,成都市,星巴克咖啡(鹏瑞利医疗中心店),锦绣大道5500号A1栋1层局部
四川省,成都市,星巴克咖啡(大丰汇融广场店),大丰街道方元路55号汇融广场1层
四川省,成都市,星巴克咖啡(万达广场金牛店),一环路北三段1号万达广场金牛店万达百货1层1015
四川省,成都市,星巴克咖啡(鹏瑞利购物中心店),光华北三路55号鹏瑞利青羊广场1层12-14号
四川省,成都市,星巴克咖啡(万达广场),二环路东五段29号万达广场F1层101-102
四川省,成都市,星巴克咖啡(珠江国际店),光华大道三段 1588号珠江国际购物中心1层L144-B号
四川省,成都市,星巴克咖啡(万达广场),日月大道一段978号万达广场F4层4059
四川省,成都市,星巴克咖啡(COSMO财富中心盐市口),大业路6号COSMO财富中心(盐市口)F3层
四川省,成都市,星巴克咖啡(茂业天地),盐市口东御街19号茂业天地F3层
四川省,成都市,星巴克(成都万象城店),双庆路8号万象城B1层B156
四川省,成都市,星巴克咖啡(钻石广场店),万科钻石广场1层9
四川省,成都市,星巴克咖啡(成都新街里店),成汉中路123号
四川省,成都市,星巴克咖啡,龙泉驿万达广场
四川省,成都市,星巴克咖啡(汇锦城店),盛安街77号汇锦城A座底商
四川省,成都市,星巴克(成都火车东站店),青衣江路成都东站2F层
四川省,成都市,星巴克(峰汇中心店),天府三街218号峰汇中心2栋1层
四川省,成都市,星巴克咖啡(西村店),贝森北路1号西村大院1层
四川省,成都市,星巴克(中粮鸿云店),汇源北路333号中粮鸿云悦街1层
四川省,成都市,星巴克咖啡(成都悠方购物中心店),交子大道300号悠方购物广场
四川省,成都市,星巴克(成都象南里店),万象路669号1-2层
四川省,成都市,星巴克咖啡(中海环宇荟店),交子大道281号中海环宇荟102B
四川省,成都市,代购星巴克(双流万达广场店),龙泉街道永安路以北成都龙泉驿万达广场地上1层1001号商铺
四川省,成都市,星巴克咖啡(佛罗伦萨小镇店),友爱镇银杏路888号佛罗伦萨小镇奥特莱斯2层
四川省,成都市,星巴克咖啡(万达广场武侯店),聚龙路988号万达广场(武侯店)F1层1029
四川省,成都市,星巴克咖啡(麓山国际店),天府新区麓山大道二段18号麓山国际
四川省,成都市,星巴克,T2航站楼出发大厅及到达大厅登机号171对面
四川省,成都市,星巴克咖啡(武侯吾悦广场店),武侯大道顺江段77号吾悦广场1层
四川省,成都市,星巴克咖啡(金堂万达店),滨江路1段万达广场1层
四川省,成都市,星巴克咖啡(华宇广场店),上沙河铺街789号华宇广场9号楼第LG层LG009-LG011
四川省,成都市,星巴克咖啡(凯德广场),万科路9号凯德广场魅力城1-1B-2A号
四川省,成都市,星巴克咖啡(世纪城店),高新区天府大道中段1号
四川省,成都市,星巴克咖啡(崇州万达广场店),永康东路299号万达广场1层
四川省,成都市,星巴克咖啡(铁建广场店),东华一路47号铁建广场1层
四川省,成都市,星巴克(双楠伊藤洋华堂店),逸都路6号伊藤洋华堂F1层
四川省,成都市,星巴克(太古里二店),中纱帽街8号成都远洋太古里M层M001a
四川省,成都市,STARBUCKS COFFER,华油路6号附36附近
四川省,成都市,星巴克咖啡(卓锦曼购店),成龙大道西段枫树街交口卓锦曼购购物中心1层
四川省,成都市,星巴克咖啡(郫都百伦广场店),郫筒镇一环路西北段188号百伦广场左侧
四川省,成都市,星巴克咖啡(城南优品道店),双楠大道白衣上街177号城南优品道广场F1层
四川省,成都市,星巴克咖啡(青羊万达4F店),日月大道一段978号万达广场F1层
四川省,成都市,星巴克咖啡(科学城店),湖畔路北段333号天府菁蓉中心A区4栋B1层
四川省,成都市,星巴克咖啡(新都新城市广场店),马超东路226号新城市购物广场F1层
四川省,成都市,星巴克咖啡(银泰城),益州大道1999号第18幢银泰城购物中心1层
四川省,成都市,星巴克(环球中心3店),天府大道北段1700号新世纪环球购物中心1层
四川省,成都市,星巴克咖啡(益州国际广场店),华府大道一段688号圣沅·益州国际广场1层
四川省,成都市,星巴克咖啡(科华中路王府井店),科华中路2号王府井百货F1层L01010
四川省,成都市,星巴克咖啡(明宇金融广场店),东大街紫东楼段35号明宇金融广场地上1层
四川省,成都市,星巴克咖啡(银泰中心店),天府大道北段1199号成都银泰中心in99F1层
四川省,成都市,星巴克咖啡(曙光国际店),高新区天晖中街56号
四川省,成都市,星巴克(华阳戛纳湾店),华阳街道骑龙村11社戛纳印象地上1层1102-1104号
四川省,成都市,星巴克咖啡(新城吾悦广场店),龙泉桃都大道中段888号成都新城吾悦广场零售商区地上一层的1051/1052/1053号单元
四川省,成都市,星巴克咖啡(双流万达广场店),"星空路航园路口万达广场1层1061B,1062B号"
四川省,成都市,星巴克(来福士II店),人民南路4段3号来福士B2层
四川省,成都市,星巴克咖啡(富力天汇店),顺城大街269号富力天汇购物广场1层
四川省,成都市,星巴克咖啡(都江堰店),幸福镇都江堰大道211号1栋百伦广场百伦百货零售商区1层
四川省,成都市,星巴克咖啡(财富中心店),大业路6号附3-4号1-2层
四川省,成都市,星巴克咖啡(三千集店),二环路东二段1号1层21号
四川省,成都市,星巴克咖啡(欧尚店),站华路9号欧尚1层
四川省,成都市,星巴克咖啡(新光路店),紫荆北街85号大世界商业广场1层
四川省,成都市,星巴克咖啡(龙湖时代天街店),合信路89号龙湖时代天街购物广场1层14
四川省,成都市,星巴克咖啡(仁恒置地广场西楼),人民南路2段1号仁恒置地广场西楼F1层
四川省,成都市,星巴克咖啡(中海大厦店),龙腾东路36号1栋中海大厦1层
四川省,成都市,星巴克咖啡(丽都悦街店),丽都路513号中粮香颂丽都悦街1层
四川省,成都市,星巴克咖啡(天府新谷店),成汉南路天府新谷6号楼1层
四川省,成都市,星巴克咖啡(蜀都万达店),望丛东路139号蜀都万达广场F1层1001
四川省,成都市,星巴克(双楠人人乐店),双楠路326号双楠商业中心1层
四川省,成都市,星巴克咖啡(SM广场店),二环路东二段29号SM广场1层
四川省,成都市,星巴克咖啡(环球中心II店),天府大道北段1700号新世纪环球购物中心2层BD02A单元
四川省,成都市,星巴克咖啡(欢乐颂店),猛追湾街94号339欢乐颂购物中心1层
四川省,成都市,星巴克(华置广场店),提督街99号恒大广场购物中心F2层
四川省,成都市,星巴克咖啡(海洋中心店),天府三街99号海洋中心1层附6号
四川省,成都市,星巴克咖啡(龙湖金楠天街店),晋吉西一街66号龙湖金楠天街商场1层
四川省,成都市,星巴克咖啡(高新伊藤店),荣华北路299号都城雅颂居8栋1层
四川省,成都市,星巴克咖啡(成都青羊工业园店),成飞大道敬业路46号
四川省,成都市,星巴克咖啡(时代百盛店),总府路2号时代百盛百货2层1号
四川省,成都市,星巴克咖啡(仁恒置地广场A区),人民南路2段1号仁恒置地广场1层(写字楼大堂旁)
四川省,成都市,星巴克咖啡(成都南熙里分店),南熙里天久南巷396号
四川省,成都市,星巴克咖啡(凯德天府店),天仁路388号凯德天府F1层
四川省,成都市,星巴克咖啡(仁和春天店),二环路西二段街19号仁和春天百货1层
四川省,成都市,星巴克咖啡(成都华侨城店),华侨城公园广场1层商业街C3101-C3102(沙西线交大立交外侧)
四川省,成都市,星巴克咖啡(成都阳光新业中心店),一环路东五段87号阳光新业中心1层
四川省,成都市,星巴克咖啡(太古里店),中纱帽街8号成都远洋太古里L2层2247B
四川省,成都市,星巴克(复城国际店),益州大道中段722号复地复城国际广场F1层
四川省,成都市,星巴克(国际金融广场店),红星路国际金融广场6层
四川省,成都市,星巴克咖啡(成都双流国际机场),机场东路双流国际机场3层出发大厅
四川省,成都市,星巴克咖啡(成都锦华万达广场店),锦华路68号附1号万达广场
四川省,成都市,星巴克咖啡(金融城店),天府大道北段996号天府国际金融中心8号楼2层
四川省,成都市,星巴克咖啡(威斯顿店),东御街19号茂业天地1-2层
四川省,成都市,星巴克(世豪广场店),剑南大道998号世豪广场1层
四川省,成都市,星巴克咖啡(成都铁狮门晶融汇店),东大街99号晶融汇广场1层119号
四川省,成都市,星巴克咖啡(成都九方店),府城大道中段88号九方购物中心1层
四川省,成都市,星巴克咖啡(西单臻选店),苏坡东路12号西单商场1-2层附7号
四川省,成都市,星巴克咖啡(新城市广场店),西大街19号新城市广场1层麦当劳楼下
四川省,成都市,星巴克咖啡(臻选店),科技创业中心锦城大道666号奥克斯广场1层
四川省,成都市,星巴克咖啡(总府店),总府路15号王府井百货1层
四川省,成都市,星巴克咖啡(金牛凯德店),交大路183号凯德广场·金牛F1层
四川省,成都市,星巴克(时代奥特莱斯店),双楠大道中段633号时代奥特莱斯1层1204-1206
四川省,成都市,星巴克咖啡(成都天府水街店),天府一街699号铁像寺水街1期2区7栋2-5-2、8栋2-5-5单元
四川省,成都市,星巴克咖啡(新世纪环球中心),天府大道北段1700号新世纪环球中心F1层1FB20
四川省,成都市,星巴克咖啡(中海国际店),高新西区汇川街388号中海国际1层
四川省,成都市,星巴克(锦华路BHG店),西航港锦华路二段166号BHG购物中心1层F1-29-30单元
四川省,成都市,星巴克咖啡(莱蒙都会店),莱蒙置地广场3栋1层
四川省,成都市,星巴克咖啡(世代锦江店),下南大街59号世代锦江1栋1层附7
四川省,成都市,星巴克咖啡(成都春熙坊店),总府路29号春熙坊小区街1层
四川省,成都市,星巴克咖啡(北城天街店),五块石1号北城天街B馆1层27号1层-1号
四川省,成都市,星巴克咖啡(翡翠天地店),琉璃路656号
四川省,成都市,星巴克(财富又一城店),府青路二段2号财富又一城1层(近一环路)
四川省,成都市,星巴克咖啡(优品道广场店),青羊大道99号附33号
四川省,成都市,星巴克咖啡(丰德国际广场店),新希望路7号丰德万瑞中心A座1层
四川省,成都市,星巴克咖啡(银石广场店),红星路三段99号银石广场2层2017号
四川省,成都市,星巴克咖啡(成都来福士店),人民南路4段3号来福士F1层
四川省,成都市,星巴克咖啡(成都航天大厦店),新光华街7号航天科技大厦1层
四川省,成都市,星巴克(建设路伊藤店),二环路东二段426号伊藤洋华堂2层
四川省,成都市,星巴克咖啡(天府软件园店),世纪城南路399号天府软件园D区1层
四川省,成都市,星巴克咖啡(凯德广场沙湾店),二环路北一段10号凯德广场沙湾店F1层01-34-35
四川省,成都市,星巴克咖啡(成都双楠鹭岛店),龙华北路附1号
四川省,成都市,星巴克咖啡(群光广场),春熙路南段8号群光广场B1层
四川省,成都市,星巴克咖啡(凯丹广场店),盛和一路99号凯丹广场1层1-31号
四川省,成都市,星巴克咖啡(成都兰桂坊店),滨江东路兰桂坊第17栋1层
四川省,成都市,星巴克咖啡(成都宽窄巷子店),宽窄巷子文化保护区窄巷子22号
四川省,成都市,星巴克咖啡(上海花园店),神仙树南路37号(中海名城对面)
四川省,成都市,星巴克咖啡(成都锦里店),武侯祠大街231号(近三国茶楼)
四川省,成都市,星巴克咖啡(成都科甲店),正科甲巷48号科甲大厦1层
四川省,成都市,星巴克咖啡(成都倍特店),青龙街51号倍特康派1层
四川省,成都市,星巴克咖啡(成都威斯顿店),人民南路4段19号威斯顿联邦大厦1层
四川省,成都市,星巴克咖啡(苏宁广场店)(装修中),天府大道北段8号苏宁广场1层126单元
浙江省,杭州市,星巴克,浙江大学附属第二小学的对面
浙江省,杭州市,星巴克(黄龙世纪店),杭大路1号黄龙世纪广场B区1层15号室
浙江省,杭州市,星巴克(湖滨银泰C区店),上延安路278号1层A108号商铺
浙江省,杭州市,星巴克(宝龙北区店),滨盛路3867号滨江宝龙城市广场第1层M-F1-030号
浙江省,杭州市,星巴克(天虹商场店),新塘路108号天虹购物中心B座1层131号
浙江省,杭州市,星巴克(下沙龙湖店),金沙大道560号龙湖金沙天街1层54、2层52A
浙江省,杭州市,星巴克(星光大道店),江南大道228号星光国际广场1-101、201
浙江省,杭州市,星巴克(西溪湿地河渚街店),文二西路777号西溪国家湿地公园河渚街
浙江省,杭州市,星巴克(湖滨银泰B区店),延安路245号湖滨银泰in77B区B1层161室
浙江省,杭州市,星巴克(IX-WORK大厦店),滨安路650号IX-WORK大厦1层105单元
浙江省,杭州市,星巴克(星耀城二期店),江陵路1916号兴祺大厦3幢第1层1-105号
浙江省,杭州市,星巴克(星光城店),长河街道滨盛路1766号星光城2层L249号
浙江省,杭州市,星巴克(康康谷店),长河街道春晓路61号康康谷商业中心1幢101-2室
浙江省,杭州市,星巴克(嘉里中心1店),庆春路268号嘉里中心办公楼1层OL101a号单元
浙江省,杭州市,星巴克(杭州东站出发夹层店),天城路1号杭州火车东站3层HD-55号
浙江省,杭州市,星巴克(江干万象城二店),富春路701号杭州万象城2期B1层S08号
浙江省,杭州市,星巴克(国际机场T2出发禁区店),空港大道萧山国际机场T2航站楼
浙江省,杭州市,星巴克(城东汇和城店),新风路619号汇和城第1层1050号和第2层2060号
浙江省,杭州市,星巴克(萧山城市生活广场店),金城路333号LSE城市生活广场1-2层
浙江省,杭州市,星巴克(萧山万象汇1F店),金城路927号杭州万象汇第L1层L101-L102号
浙江省,杭州市,星巴克(西湖银泰1F店),延安路98号西湖银泰城一层
浙江省,杭州市,星巴克(西湖文化广场店),西湖文化广场18号银泰百货1层
浙江省,杭州市,星巴克(黄龙万科中心店),翠苑街道学院路77号黄龙国际中心AB楼1层1-104室
浙江省,杭州市,星巴克(浙江广播电视中心店),莫干山路111号音乐厅1层
浙江省,杭州市,星巴克(天润中心店),萧棉路172-174号1层
浙江省,杭州市,星巴克(嘉里中心2店),延安路385号嘉里中心购物中心4层L419b
浙江省,杭州市,星巴克(国大7F店),延安路609号国大城市广场7层7号
浙江省,杭州市,星巴克(新天地G193店),长浜路970-974号新天地中心第1层1001单元华盛达雷迪森酒店旁边
浙江省,杭州市,星巴克(缤谷店),浦沿街道江南大道4756号世融商业中心1幢103-1室
浙江省,杭州市,星巴克(和瑞科技园店),长河街道长河路475号
浙江省,杭州市,星巴克(信义坊店),湖墅南路488号
浙江省,杭州市,星巴克(浙富西溪堂店),仓前街道绿汀路21-2号、21-3号1层
浙江省,杭州市,星巴克(和仁科技大厦店),新联路625号和仁科技大厦第1层103室
浙江省,杭州市,星巴克(西溪印象城2店),五常大道1号西溪印象城地上第1层的P1-01-65单元
浙江省,杭州市,星巴克(江干来福士1店),新业路228号杭州来福士中心1层28-29A号
浙江省,杭州市,星巴克(江干来福士2店),新业路228号杭州来福士中心7层4B号
浙江省,杭州市,星巴克(西溪银泰城店),蒋村街道双龙街88号西溪银泰城1F020-1F021号
浙江省,杭州市,星巴克(杭州树兰医院店),下东新路836101号
浙江省,杭州市,星巴克(矩阵国际店),余杭塘路515号矩阵国际中心1号写字楼大堂内1-01部位
浙江省,杭州市,星巴克咖啡(萧山汇金中心店),北干街道博奥路788-790号、金城路145-146号
浙江省,杭州市,星巴克咖啡(萧山红利潮人汇店),萧绍路951号1层101号
浙江省,杭州市,星巴克咖啡(杭州临安万华广场店),钱王大街855号万华广场1-16号
浙江省,杭州市,星巴克咖啡(瓜沥七彩小镇店),瓜沥镇建设四路10700-10704号
浙江省,杭州市,星巴克咖啡(潮人汇商厦),苎萝路与103省道交叉口西北50米
浙江省,杭州市,星巴克咖啡(宋城店),[]
浙江省,杭州市,星巴克咖啡(万达广场),杭行路666号万达广场1层1001号
浙江省,杭州市,星巴克咖啡(富阳富春港店),登城北路69号1层A单元
浙江省,杭州市,星巴克咖啡(杭州临平时代广场店),南大街326号时代广场A座1层
浙江省,杭州市,星巴克咖啡(塘栖古镇店),塘栖镇西横头街14-4号
浙江省,杭州市,星巴克咖啡(临平乐慧店),南兴路138号1F-02商铺
浙江省,杭州市,星巴克咖啡(501城市广场店),景昙路9号西子国际中心1层第101-8号
浙江省,杭州市,星巴克咖啡(东城广场店),九沙大道399号东城广场1层103-1号商铺
浙江省,杭州市,星巴克咖啡(杭州桐庐利时广场店),迎春南路666号桐庐利时广场1层109室
浙江省,杭州市,星巴克咖啡(聚光店),阡陌路459号聚光中心A座101室
浙江省,杭州市,星巴克咖啡(转塘店),金街美地1号楼1层101室
浙江省,杭州市,星巴克咖啡(良渚文化村店),良渚文化村村民食堂
浙江省,杭州市,星巴克咖啡(和合广场店),东湖南路59-1号和合财富中心1层
浙江省,杭州市,星巴克咖啡(博货国际购物广场店),博卡路16号博货国际购物广场1层博美商城16-1-106
浙江省,杭州市,星巴克咖啡(解百新世纪店),解放路249号解百新世纪商厦1-2层
浙江省,杭州市,星巴克咖啡(永旺梦乐城店),古墩路1888号永旺梦乐城1层171号
浙江省,杭州市,星巴克咖啡(断桥店),北山街9号
浙江省,杭州市,星巴克咖啡(临平莱蒙商业广场店),临平街道藕花洲大街303号莱蒙商业广场1-1
浙江省,杭州市,星巴克咖啡(杭州桐庐立山国际店),迎春南路281号立山国际中心1层
浙江省,杭州市,星巴克咖啡(杭州UDC店),华联时代大厦A幢103-1室
浙江省,杭州市,星巴克咖啡(杭州下沙上品店),4号大街505-1号上品折扣1层
浙江省,杭州市,星巴克咖啡(金海城店),杭海路878号金海城B馆1层125号
浙江省,杭州市,星巴克咖啡(玉长城商业广场),春秋北路271-1号银泰百货1层
浙江省,杭州市,星巴克咖啡(杭州灵隐路店),灵隐路36-2号
浙江省,杭州市,星巴克咖啡(杭州EAC店),教工路26号世贸丽晶城欧美中心2号楼G区107-108室
浙江省,杭州市,星巴克咖啡(杭州天寓店),东信大道1232号1层
浙江省,杭州市,星巴克咖啡(西溪天堂),紫金港路21号西溪天堂F1层1-L101
浙江省,杭州市,星巴克咖啡(万象城),富春路701号华润中心万象城B1层B151号
浙江省,杭州市,星巴克咖啡(杭州西溪亲橙里店),五常街道文一西路961号乐淘城6号楼1层6-9号、2层209号
浙江省,杭州市,星巴克咖啡(浙大紫金港店),[]
浙江省,杭州市,星巴克咖啡(湖滨银泰IN77E区),延安路与邮电路交叉口西南100米湖滨银泰IN77E区F2层
浙江省,杭州市,星巴克咖啡(万塘汇店),万塘路262号万塘汇2号101室
浙江省,杭州市,星巴克咖啡(宝龙城市广场),2号大街与25号大街交叉口东北角宝龙城市广场1F层
浙江省,杭州市,星巴克咖啡(利星1157店),中山南路77号尚城1157·利星北区第1-18、1-20号
浙江省,杭州市,星巴克咖啡(崇贤上亿广场店),塘康路17号上亿广场第1层塘康路17-4号
浙江省,杭州市,星巴克咖啡(江城路店),江城路471-5号第一、第二层商铺
浙江省,杭州市,星巴克咖啡(东方电子商务园店),九盛路9号A06幢108室
浙江省,杭州市,星巴克咖啡(武林广场地铁站店),环城北路武林广场地铁站地下一楼
浙江省,杭州市,星巴克咖啡(杭州湾信息港店),明星路371号
浙江省,杭州市,星巴克咖啡(杭州浙大城市学院店),石祥路269号1幢1层101-1室
浙江省,杭州市,星巴克咖啡(杭州临平余之城店),迎宾路501号余之城购物中心1层155号单元
浙江省,杭州市,星巴克咖啡(新禾联创公园店),九华路1号13号楼1层102
浙江省,杭州市,星巴克咖啡(优盘时代店),三墩镇萍水西街80号优盘时代中心2-3号楼4-5号
浙江省,杭州市,星巴克咖啡(杭州河坊街店),中山中路72号
浙江省,杭州市,星巴克咖啡(大华西溪风情店),大华欣华支路与永福路交叉口西北100米西溪风情花园澄品苑30-6号、30-7号
浙江省,杭州市,星巴克咖啡(杭州西溪欢乐城店),闲林街道五常大道421号西溪欢乐城1号楼1-102
浙江省,杭州市,星巴克咖啡(江干天城路店),天城路86号第1层1-3号
浙江省,杭州市,星巴克咖啡(金地德圣店),金城路296号星光天地F1层7号109-112
浙江省,杭州市,星巴克咖啡(杭州梦想小镇店),仓前街道仓兴街1号梦想大街31幢1部分
浙江省,杭州市,星巴克咖啡(远洋乐堤港商业街店),小河街道远见街333号乐堤港远见大厦101、201室
浙江省,杭州市,星巴克咖啡(下沙福雷德店),文泽路99号福雷德广场1层
浙江省,杭州市,星巴克咖啡(西溪首座店),文一西路588号11幢101A室
浙江省,杭州市,星巴克咖啡(杭州文三西路店),文三西路285号102室
浙江省,杭州市,星巴克咖啡(鑫都汇店),江陵路336号鑫都汇大厦一层101-5单元
浙江省,杭州市,星巴克咖啡(杭州滨江卓信大厦店),南环路3820号卓信大厦1层
浙江省,杭州市,星巴克咖啡(万科北宸之光店),通运街217-3-5号
浙江省,杭州市,星巴克咖啡(万宝城店),荷禹路105号万宝城B116
浙江省,杭州市,星巴克咖啡(宝龙广场),建设一路200号宝龙广场1F层
浙江省,杭州市,星巴克咖啡(四眼井店),虎跑路47号
浙江省,杭州市,星巴克咖啡(新天地集团总部店),石祥路18号新天地集团总部1层
浙江省,杭州市,星巴克咖啡(天都城分店),广厦天都城香榭路8号商铺8号8-1
浙江省,杭州市,星巴克咖啡(建德盛德太平洋店),严东关路与江滨路交汇处盛德国际广场4幢1030-1034号
浙江省,杭州市,星巴克咖啡(西溪诚品店),紫霞街155号西溪诚品商务楼1层103-1号
浙江省,杭州市,星巴克咖啡(金地广场店),古墩路1333号金地广场F1-111-112单元
浙江省,杭州市,星巴克咖啡(萧山宝盛宾馆店),市心中路618号
浙江省,杭州市,星巴克咖啡(凯迪银座店),解放东路29号迪凯银座104室
浙江省,杭州市,星巴克咖啡(蓝钻天成店),莫干山路979-981号
浙江省,杭州市,星巴克咖啡(和家园店),杨梅山路343号1层101室、2层201室
浙江省,杭州市,星巴克咖啡(北部软件园店),祥园路99号运河广告产业大厦2幢1层101-103
浙江省,杭州市,星巴克咖啡(千岛湖秀水广场店),阳光路89号秀水广场A-1号
浙江省,杭州市,星巴克咖啡(银泰百货A馆),延安路530号银泰百货A馆2F层
浙江省,杭州市,星巴克咖啡(杭州萧山恒隆广场店),山阴路688号恒隆广场b座1楼
浙江省,杭州市,星巴克咖啡(杭州赞成中心店),复广直街8号赞成中心1层
浙江省,杭州市,星巴克咖啡(杭州市民中心店),市民中心H座B1层
浙江省,杭州市,星巴克咖啡(杭州东杭大厦店),城星路59号东杭大厦1层2号
浙江省,杭州市,星巴克咖啡(深蓝广场店),朝晖路205号绿城深蓝广场2层108号
浙江省,杭州市,星巴克咖啡(和平饭店店),朝晖路108号102室和平饭店
浙江省,杭州市,星巴克咖啡(杭州万福中心店),西兴街道滨康路228号万福中心3幢A座101-102室
浙江省,杭州市,星巴克咖啡(新芯智谷GHI店),工专路黄龙国际中心H座1层101室
浙江省,杭州市,星巴克咖啡(灵隐解百店),灵隐路38-2号杭州灵隐休闲旅游购物中心1层5室E01
浙江省,杭州市,星巴克咖啡(杭州乐宜城店),江陵路2028号3幢101-6室、101-7室
浙江省,杭州市,星巴克咖啡(杭州日报店),体育场路218号杭州日报老大楼东面1层
浙江省,杭州市,星巴克咖啡(杭州滨江城市之星店),城星路125号
浙江省,杭州市,星巴克咖啡(303生活广场店),三墩镇厚仁路339-341号303生活广场1层
浙江省,杭州市,星巴克咖啡(杭州文一汇和城店),文一路296号杭州文一汇和城1层
浙江省,杭州市,星巴克咖啡(运河上街店),台州路2号运河上街购物中心西区F1层151号
浙江省,杭州市,星巴克咖啡(杭州苏宁生活广场店),湖墅南路90号苏宁生活广场1层
浙江省,杭州市,星巴克咖啡(杭州丁兰广场店),蕙兰雅路388号丁兰广场3幢129-130室
浙江省,杭州市,星巴克咖啡(西湖国际科技大厦店),翠苑街道文二路391号西湖国际科技大厦裙楼1层4001-3室
浙江省,杭州市,星巴克咖啡(杭州下沙和达城店),下沙和达城2号大街999号天和达城1-2层
浙江省,杭州市,星巴克咖啡(萧山银隆百货店),市心中路268号银隆百货B座1层
浙江省,杭州市,星巴克咖啡(之江路店),之江路888号杭州文化广播电视集团1层
浙江省,杭州市,星巴克咖啡(萧山旺角城店),市心中路123号顺发旺角城新天地金座7幢101-1号
浙江省,杭州市,星巴克咖啡(大华华领国际店),文二路349号大华·华领国际
浙江省,杭州市,星巴克咖啡(野风现代中心店),绍兴路161号野风现代中心1层
浙江省,杭州市,星巴克咖啡(城西银泰1店),丰潭路380号银泰城城西店F1层66-68号
浙江省,杭州市,星巴克咖啡(杭州西溪新座店),西溪新座西溪路546号-2-102、2-103-1
浙江省,杭州市,星巴克咖啡(杭州智汇中心店),滨安路1190号信诚路智汇中心3幢
浙江省,杭州市,星巴克咖啡(庆春路店),庆春路122号嘉德广场1层
浙江省,杭州市,星巴克咖啡(东冠大厦店),江南大道588号
浙江省,杭州市,星巴克咖啡(杭州海创园店),文一西路998号海创园19幢1层
浙江省,杭州市,星巴克咖啡(杭州曲院风荷店),北山路87-2号
浙江省,杭州市,星巴克咖啡(西湖天地店),南山路147号西湖天地6号楼
浙江省,杭州市,星巴克咖啡(西溪印象城店),五常大道1号西溪印象城L1层L138
浙江省,杭州市,星巴克咖啡(杭州印象城购物中心),古墩路588号杭州古墩印象城1层
浙江省,杭州市,星巴克咖啡(北山路店),北山街87-5号1层
浙江省,杭州市,星巴克咖啡(国大城市广场店),延安路609号国大城市广场1层10-2层7号
浙江省,杭州市,星巴克咖啡(杭州大厦C座店),武林广场21号杭州大厦C座2层
浙江省,杭州市,星巴克咖啡(杭州赞成太和广场店),飞云江路19号(鼎间酒店旁)
浙江省,杭州市,星巴克咖啡(银泰百货),景昙路18-26号银泰百货庆春店1层
浙江省,杭州市,星巴克咖啡(杭州石函店),圣塘景区8号
浙江省,杭州市,星巴克咖啡(杭州大厦D座店),环城北路258号杭州大厦购物城D座1层
浙江省,杭州市,星巴克咖啡(杭州嘉华店),杭大路15号嘉华国际商务中心1-2层
浙江省,杭州市,星巴克咖啡(杭州凯悦店),平海路124号利星名品广场1层
浙江省,杭州市,星巴克咖啡(杭州宜家道店),湖墅南路240号1层
浙江省,杭州市,星巴克咖啡(智能小镇店),文一西路1818-2号中国人工智能小镇9号楼
浙江省,杭州市,星巴克咖啡(西溪银泰城南门店),蒋村街道双龙街88号西溪银泰城1F011、2F008A号
浙江省,杭州市,星巴克咖啡(西子国际店),迎宾大道西子国际路1号楼1-1单元
浙江省,杭州市,星巴克咖啡(空港新天地店),靖江街道青六南路1079-1145号空港新天地商场1层
浙江省,杭州市,星巴克咖啡(东站西子国际店),环站东路777号东站西子国际C座1层4号
浙江省,杭州市,星巴克咖啡(运河上街东门店),台州路2号运河上街购物中心东区1层F139号
浙江省,杭州市,星巴克咖啡(金龙财富中心店),庆春路38号1层103号
浙江省,杭州市,星巴克咖啡(赛银国际店),溪望路与高教路交叉口赛银国际7号楼1层
浙江省,杭州市,星巴克咖啡(东方通信店),东信大道66号东方通信城3期2号楼1层101单元
浙江省,杭州市,星巴克咖啡(之江一号店),横桥路酩楼艺墅大酒店1层
浙江省,杭州市,星巴克咖啡(远洋乐堤港B1店),丽水路58号44室
浙江省,杭州市,星巴克咖啡(杭州天城国际店),机场路119-131号第1层A-15号
浙江省,杭州市,星巴克咖啡(杭州解放路汇和城店),解放路91-93号天工艺苑1层1号
浙江省,杭州市,星巴克咖啡(望江府店),钱江路407号
浙江省,杭州市,星巴克咖啡(江南荟商业中心店),杭州东站东广场江南荟商业中心B1层C01号
浙江省,杭州市,星巴克咖啡(西田城),金家渡路8号西田城购物中心1层A1F-8-1
浙江省,杭州市,星巴克咖啡(乐富智汇园店),祥园路28号乐富智汇园107-108号
浙江省,杭州市,星巴克咖啡(银泰百货),海达南路与下沙路交叉口西南角银泰百货F1层1A-1
浙江省,杭州市,星巴克咖啡(中大银泰城店),东新路822号中大银泰城1层L108单元
浙江省,杭州市,星巴克咖啡(杭州望江国际店),望江东路332号中豪·望江国际3号楼1层102号
浙江省,杭州市,星巴克咖啡(滨江网新店),江汉路1785号网新.双城大厦4号楼1层4-101
浙江省,杭州市,星巴克咖啡(萧山大象国际中心店),宁围镇民和路600号大象国际中心
浙江省,杭州市,星巴克咖啡(杭州阿里巴巴西溪店),文一西路969号阿里巴巴西溪园区3号楼1层
浙江省,杭州市,星巴克咖啡(银泰城西二店),丰潭路380号银泰城1F016-2F018
浙江省,杭州市,星巴克咖啡(东方茂购物中心店),金桥北路1号东方茂购物中心F1层
浙江省,杭州市,星巴克咖啡(浙商财富中心店),莲花街与古墩路交叉口浙商财富中心3幢101室
浙江省,杭州市,星巴克咖啡(D32分店),小河路306号1号楼1层A101号
浙江省,杭州市,星巴克咖啡(浙江省人民医院店),上塘路158号省人民医院1号楼1号门1层
浙江省,杭州市,星巴克咖啡(庆春路店),庆春路229号
浙江省,杭州市,星巴克咖啡(树兰医院店),东新路836号101号商铺
浙江省,杭州市,星巴克咖啡(千岛湖骑龙巷店),骑龙巷2号1幢地上第1层101、第2层201
浙江省,杭州市,星巴克咖啡(湖滨银泰IN77E区),延安路与邮电路交叉口西南100米湖滨银泰IN77E区F1层
浙江省,杭州市,星巴克咖啡(湖滨银泰IN77E区店),湖滨商圈解放路260号(蒸青年旁边)
浙江省,杭州市,星巴克咖啡(亚厦店),沙秀路99号亚厦中心3号楼
浙江省,杭州市,星巴克咖啡(昆仑中心店),富春路与望潮路交叉口昆仑中心
浙江省,杭州市,星巴克咖啡(新天地中心店),长浜路718号新天地中心第1层1001单元
浙江省,杭州市,星巴克咖啡(富阳首创奥特莱斯店),江滨东大道889号富阳首创奥特莱斯1层F1-A09商铺
浙江省,杭州市,星巴克咖啡(金盛嘉悦广场店),东冠路611号1层103单元
浙江省,杭州市,星巴克咖啡(心桥新华书店店),城厢街道市心南路88号
浙江省,杭州市,星巴克咖啡(余杭江南时代店),余杭街道江南时代购物中心105室-109室-1、110室-1、111室-1
浙江省,杭州市,星巴克咖啡(庆春路世纪联华店),庆春路86号世纪联华超市1层1001号商铺
浙江省,杭州市,星巴克咖啡(西溪路阿里中心店),古荡街道西溪路556号
浙江省,杭州市,星巴克咖啡(杭州绿城之江一号店),横桥路98号酩楼艺墅大酒店1层
浙江省,杭州市,星巴克咖啡(百联奥特莱斯广场),启潮路199号百联奥特莱斯广场F2层B211-212
浙江省,杭州市,星巴克咖啡(新塘店),新塘路58号第一层101号商铺
浙江省,杭州市,星巴克咖啡(阿里巴巴店),网商路699号号阿里巴巴滨江园区7号楼1层
浙江省,杭州市,星巴克咖啡(恒生电子店),江南大道3588号2幢B101-102单元
浙江省,杭州市,星巴克咖啡(杭州金逸影视中心店),东新路655号1层1-13单元
浙江省,杭州市,星巴克咖啡(杭州浙江日报社店),体育场路178号浙江日报社1层
浙江省,杭州市,星巴克咖啡(杭州萧山国际机场),机场路T3航站楼2层13号门旁
浙江省,杭州市,瑞思星巴克,金城路333号LSE城市生活广场3楼
浙江省,杭州市,星巴克臻选(临平银泰城臻选店),南苑街道世纪大道西1号第一层128号
浙江省,杭州市,星巴克臻选(龙湖GF店),江汉路1515号1F-15号商铺
浙江省,杭州市,建德服务区星巴克咖啡,乌驹市村建德服务北区1号商铺
浙江省,杭州市,桐庐服务区星巴克咖啡,小潘村(桐庐服务区南区N02商铺)
浙江省,杭州市,桐庐服务区星巴克咖啡(G25桐庐服务南区店),江南镇小潘村桐庐服务区南区N02
浙江省,杭州市,星巴克咖啡(杭州黄龙时代广场店)(装修中),天目山路274号黄龙时代广场1层
湖北省,武汉市,星巴克咖啡(星汇维港店),越秀星汇维港购物中心A馆1层
湖北省,武汉市,星巴克咖啡(长城汇店),中北路9号长城汇一楼
湖北省,武汉市,星巴克(经开永旺梦乐城2店),江城大道388号江城大道三环线交接处永旺梦乐城B座1层B104单元
湖北省,武汉市,星巴克甄选(武珞路店),武珞路421号
湖北省,武汉市,星巴克(汉口新世界店),汉口解放大道634号新世界百货中心1层
湖北省,武汉市,星巴克(南湖时尚城店),南湖大道116号零售商区K4a号楼1层商1-6单元
湖北省,武汉市,星巴克(洪山金地广场店),团结大道1335号金地广场1层
湖北省,武汉市,星巴克甄选(藏龙岛店),杨桥湖大道1117号附近
湖北省,武汉市,星巴克咖啡(桃源里店),西马街街道台北路96号华润桃源里商业街一楼
湖北省,武汉市,星巴克咖啡,和平大道与建设四路交叉口南100米
湖北省,武汉市,星巴克(光谷新世界店),东湖新技术开发区关山大道353号光谷新世界1层
湖北省,武汉市,星巴克咖啡(金银湖店),金银湖路6号金湖御品S1号裙楼地上一层1-01单元
湖北省,武汉市,星巴克咖啡(MOMA城店),欢乐大道1号东湖MOMA城A栋一层
湖北省,武汉市,星巴克咖啡(江腾广场店),马鹦路117号江腾广场A座1层
湖北省,武汉市,星巴克咖啡(群光二店),珞瑜路10号群光二馆一楼
湖北省,武汉市,星巴克咖啡(银泰御华里店),怡和路1号银泰御华园3期银泰御华里
湖北省,武汉市,星巴克咖啡(常青中央商业街店),常青花园中路117附3号附近
湖北省,武汉市,星巴克咖啡(天纵城广场店),巨龙大道1号天纵城广场1层
湖北省,武汉市,星巴克咖啡(武汉洪山广场站店),水果湖街办事处中北路凯德1818广场四楼
湖北省,武汉市,星巴克咖啡(湘隆时代广场店),沌口街道湘隆时代广场
湖北省,武汉市,星巴克咖啡(武汉首创奥特莱斯店),高新二路139号(光谷国际网球中心对面)
湖北省,武汉市,星巴克咖啡(中百广场店),纸坊街文化路37号江夏中百广场1层1单元
湖北省,武汉市,星巴克咖啡(光谷德国风情街店),珞瑜路766号光谷世界城广场四期德国风情街1楼
湖北省,武汉市,星巴克咖啡(金色港湾店),博学路6号金色港湾1层B102
湖北省,武汉市,星巴克(世纪都会广场1店),京汉大道与江汉路交汇处世纪都会广场1层
湖北省,武汉市,星巴克换其他咖啡,唐家墩街街道唐家墩街办事处发展大道201号中国工商银行
湖北省,武汉市,星巴克咖啡(武汉天纵城店),汉口北大道以南、岱黄公路以西天纵城
湖北省,武汉市,星巴克咖啡(纽宾凯汉City店),芳草路97号纽宾凯汉City1层
湖北省,武汉市,星巴克咖啡(铂仕汇店),球场街街道京汉大道1268号铂仕汇国际广场一楼
湖北省,武汉市,星巴克咖啡(新华路CFD店),新华路468号武汉CFD写字楼1层
湖北省,武汉市,星巴克咖啡(佰港城店),丁字桥南路525号维佳体验城1层
湖北省,武汉市,星巴克童话森林,欧亚达汉阳国际广场龙阳大道130号F5
湖北省,武汉市,星巴克咖啡(印象城店),和平大道与冶金大道交汇处武汉印象城1层1-32单元
湖北省,武汉市,星巴克咖啡(永旺梦乐城石桥店),金桥大道15号永旺梦乐城石桥店1层
湖北省,武汉市,星巴克(五环天地店),卓刀泉271号五环天地1层2-1-A01
湖北省,武汉市,星巴克咖啡(武展东路店),解放大道374号新崇光时尚广场B座B1-1单元
湖北省,武汉市,星巴克咖啡(才聚巷店),奥山世纪城3楼
湖北省,武汉市,星巴克咖啡(武汉民众乐园店),中山大道608号新民众乐园F1层1-12
湖北省,武汉市,星巴克咖啡(光谷国际广场店),珞喻路889号光谷国际广场1层
湖北省,武汉市,星巴克咖啡(武汉凯德西城店),解放大道26-2号武汉凯德广场1层
湖北省,武汉市,星巴克咖啡(昙华林店),粮道街办事处昙华林路202号南国昙华林A1-1层1-1
湖北省,武汉市,星巴克咖啡(奥山创意街分店),中南二路12号奥山创意街区1层
湖北省,武汉市,星巴克咖啡(东西湖中心广场店),东吴大道888号东西湖中心广场1层
湖北省,武汉市,星巴克咖啡(第一医院店),武汉市第一医院外科楼2层
湖北省,武汉市,星巴克咖啡(壹方购物中心店),中山大道1515号壹方购物中心1层商场内
湖北省,武汉市,星巴克咖啡(汉街知音广场店),汉街武汉中央文化区知音广场J3-5-16号
湖北省,武汉市,星巴克咖啡(武汉创意天地店),洪山街野芷湖西路16号武汉创意天地1期C-1栋1-3层1-2室
湖北省,武汉市,星巴克咖啡(南国南湖城市广场店),丁字桥南路520号南国南湖城市广场F1层
湖北省,武汉市,星巴克咖啡(武汉天地店),中山大道1618号A4商业区1号楼1门
湖北省,武汉市,星巴克咖啡(保利广场店),东湖新技术开发区关山大道332号保利时代广场C栋商业裙楼地上1层101-102单元
湖北省,武汉市,星巴克咖啡(骏业财富中心店),欢乐大道75号骏业财富中心B座一层06单元
湖北省,武汉市,星巴克咖啡(百联奥特莱斯广场),盘龙城盘龙大道51号百联奥特莱斯广场F1层C137B-138B
湖北省,武汉市,星巴克(武胜凯德广场店),中山大道238号凯德广场L2层
湖北省,武汉市,星巴克咖啡(德国风情街店),关山路28号光谷德国风情街8栋1层
湖北省,武汉市,星巴克咖啡(万达广场经开店),经济技术开发区东风大道111号万达广场经开店万达百货1层1033
湖北省,武汉市,星巴克咖啡(新世界百货店),珞喻路1号鹏程国际大厦新世界百货1层
湖北省,武汉市,星巴克咖啡(武汉王府井店),中山大道888号王府井百货1层
湖北省,武汉市,星巴克(经开永旺1店),江城大道388号永旺梦乐城A座1层A173号
湖北省,武汉市,星巴克咖啡(武汉保利广场店),中南路99号武汉保利广场1层
湖北省,武汉市,星巴克咖啡(新唐万科广场店),常青一路218号新唐万科广场F1层1-35
湖北省,武汉市,星巴克咖啡(凯德1818店),中北路31号凯德1818广场7层
湖北省,武汉市,星巴克(新世界百货),建设大道566号国贸新世界商场1层
湖北省,武汉市,星巴克咖啡(新时代商务中心店),武珞路456号新时代商务中心写字楼1层
湖北省,武汉市,星巴克咖啡(后湖大道幸福时代店),百步亭花园路18号幸福时代
湖北省,武汉市,星巴克咖啡(群星城店),徐东大街120号群星城1层
湖北省,武汉市,星巴克咖啡(武汉协和医院店),协和医院国际门诊部B1层
湖北省,武汉市,星巴克咖啡(武汉中央文化旅游区-楚河汉街第一街区),楚河汉街1号武汉中央文化旅游区-楚河汉街第一街区F2层
湖北省,武汉市,星巴克(泛海城市广场1店),云杉路199号泛海城市广场购物中心1期1楼
湖北省,武汉市,星巴克咖啡(武汉大洋百货龙阳店),龙阳大道36号大洋百货1层1A14-15
湖北省,武汉市,星巴克(宜家店),长宜路1号宜家购物中心6-11-03-SU单元
湖北省,武汉市,星巴克咖啡(金银潭永旺梦乐城店),金银潭大道1号永旺梦乐城金银潭店1层177号
湖北省,武汉市,星巴克咖啡(水岸国际店),水岸国际1层
湖北省,武汉市,星巴克咖啡(汉阳人信汇店),龙阳大道58号人信汇B座F1层
湖北省,武汉市,星巴克咖啡(武汉雄楚一号店),雄楚大道888号雄楚1号购物广场1F层
湖北省,武汉市,星巴克咖啡(武汉汉口城市广场店),后湖大道111号汉口城市广场购物中心2期1层35、37号
湖北省,武汉市,星巴克咖啡(百瑞景店),武珞路586号百瑞景中央花园街5栋107
湖北省,武汉市,星巴克咖啡(南国西汇店),解放大道201号南国西汇广场2期
湖北省,武汉市,星巴克咖啡(武汉站),白云路武汉站F1层
湖北省,武汉市,星巴克咖啡(武汉广发银行大厦店),建设大道737号武汉广发银行大厦1层
湖北省,武汉市,星巴克(奥山世纪城2店),和平大道809号奥山世纪城3层
湖北省,武汉市,星巴克咖啡(万达广场),汉街武汉中央文化区知音广场J3-5-16号(地铁4号线楚河汉街站、汉街万达广场)
湖北省,武汉市,星巴克(意大利风情街店三期店),意大利风情街F-3101
湖北省,武汉市,星巴克咖啡(鲁巷广场店),鲁巷广场购物中心1层
湖北省,武汉市,星巴克咖啡(武汉万达中心店),临江大道96号武汉万达中心1层1006-10号
湖北省,武汉市,星巴克(徐东新世界店),徐东大街31号徐东新世界百货1层9B号
湖北省,武汉市,星巴克咖啡(东合中心店),沌口经济技术开发区东风三路15号东合中心1层3号门
湖北省,武汉市,星巴克咖啡(泛悦汇店),张之洞路151号泛悦汇1层85-88室
湖北省,武汉市,星巴克咖啡(银泰百货武汉世纪店),中南路14号银泰百货武汉世纪店1层
湖北省,武汉市,星巴克咖啡(大武汉1911店),新华路589号大武汉19111F层593-C-1-3
湖北省,武汉市,星巴克咖啡(武汉洪福添美店),雄楚大街938号洪福添美城市广场1层
湖北省,武汉市,星巴克咖啡(武汉融科天城店),新马路3号融科天城3期13-14号
湖北省,武汉市,星巴克咖啡(武汉王府井店),中山大道756号中山大洋百货1层A17单元
湖北省,武汉市,星巴克咖啡(武汉欧利新天地店),江汉一路19号欧利新天地2层B-11
湖北省,武汉市,星巴克(菱角湖万达广场2店),唐家墩路5号菱角湖万达广场1F11号铺位A3写字楼旁边
湖北省,武汉市,星巴克咖啡(摩尔城店),王家湾龙阳大道特6号武汉摩尔城L1层L1-B0311
湖北省,武汉市,星巴克咖啡(武汉宝利金店),花楼街198号1层
湖北省,武汉市,星巴克咖啡(光谷天地店),关山大道519号光谷天地F1层
湖北省,武汉市,星巴克咖啡(武汉司门口店),解放路375号潮流百货1层
湖北省,武汉市,星巴克咖啡(普提金店),中北路普提金商务中心1层
湖北省,武汉市,星巴克咖啡(武汉大学店),珞珈山路19号珞珈山购物广场1层
湖北省,武汉市,星巴克咖啡(武汉大润发店),江汉路257号大润发F1层
湖北省,武汉市,星巴克咖啡(花园道店),青年路308号花园道1层
湖北省,武汉市,星巴克咖啡(销品茂店),徐东大街18号销品茂购物广场1层
湖北省,武汉市,星巴克咖啡(群光百货店),珞瑜路6号群光广场F1层
湖南省,长沙市,星巴克咖啡,含光路530附近
湖南省,长沙市,星巴克(叮叮mall店),劳动西路337号叮叮mall广场B1层侯家塘站地铁口4号进出口
湖南省,长沙市,星巴克咖啡(砂之船奥莱店),金星北路三段378号砂之船奥特莱斯1层2号门
湖南省,长沙市,星巴克咖啡(凯德壹中心店),茶子山东路112号凯德壹中心L1层42号
湖南省,长沙市,星巴克咖啡(吾悦店),望仙东路489号吾悦广场1层
湖南省,长沙市,星巴克咖啡(长沙桃子湖店),桃子湖路湖南师范大学桃子湖文化创意产业园A1栋第一层
湖南省,长沙市,星巴克咖啡(长沙IFS店),定王台街道东牌楼路长沙国际金融中心1层L148A号
湖南省,长沙市,星巴克咖啡(悠优港店),湘江中路二段36号华远华中心1号楼AB座103
湖南省,长沙市,星巴克咖啡(北辰店),晴岚路68号北辰凤凰海购物公园一层L1-013单元
湖南省,长沙市,星巴克咖啡(长沙中海环宇城店),中意二路111号中海环宇城1层L1-02-C单元
湖南省,长沙市,星巴克(黄花国际机场2店),黄花镇T2航站楼2F层
湖南省,长沙市,星巴克(保利Mall店),劳动东路268号保利Mall1层
湖南省,长沙市,星巴克咖啡(富兴国际金融中心店),芙蓉中路一段303号长沙富兴国际金融中心
湖南省,长沙市,星巴克咖啡,幸福路13号万达广场一层1001号商铺
湖南省,长沙市,星巴克咖啡(枫林三路店),枫林三路1101号
湖南省,长沙市,星巴克咖啡(长沙王府井店),金星中路383号长沙王府井FAMILYPARK购物中心B1层A05号
湖南省,长沙市,STARBUCKS C0FFEE,金泰路195号附近
湖南省,长沙市,星巴克咖啡(长沙开福万达广场店),湘江中路589号万达广场长沙开福店万达百货2层7号
湖南省,长沙市,星巴克咖啡(长沙时代奥特莱斯店),金洲镇欧洲路时代奥特莱斯一层
湖南省,长沙市,STARBUCKS COFFEE星巴克咖啡,长沙黄花机场T2航站楼B1层
湖南省,长沙市,星巴克咖啡(长沙华创国际广场店),芙蓉中路一段113号华创国际广场1层B-101-102号
湖南省,长沙市,星巴克咖啡(世纪金源店),金泰路199号世纪金源购物中心1层14-2单元
湖南省,长沙市,星巴克咖啡(金茂店),环湖路1177号金茂览秀城1层L129和L129-1单元
湖南省,长沙市,梅溪新天地星巴克(步步高梅溪新天地店),枫林三路1099号步步高梅溪新天地2门1层
湖南省,长沙市,星巴克咖啡(马王堆中路店),万家丽中路99号万家丽国际购物广场F1层
湖南省,长沙市,星巴克咖啡(运达中央广场店),沙湾路289号运达中央广场1层
湖南省,长沙市,星巴克咖啡(东塘荟店),韶山中路1号潇影大厦1层
湖南省,长沙市,星巴克咖啡(长沙星沙万象汇店),星沙大道186号华润万象汇1层
湖南省,长沙市,星巴克咖啡(德思勤店),湘府中路18号德思勤广场1层
湖南省,长沙市,星巴克咖啡(长沙西子花苑店),万家丽中路一段318号西子花苑1层
湖南省,长沙市,星巴克咖啡(阿波罗商业广场店),八一路1号阿波罗商业广场1层
湖南省,长沙市,星巴克咖啡(长沙奥克斯店),岳麓大道57号奥克斯广场F1层
湖南省,长沙市,星巴克咖啡(喜盈门店),万家丽路与木莲冲路交汇处喜盈门·范城3号楼1层101
湖南省,长沙市,星巴克咖啡(麓南广场店),麓山南路麓南商业广场1层
湖南省,长沙市,星巴克咖啡(长沙五一平和堂店),黄兴中路88号平和堂B1层
湖南省,长沙市,星巴克咖啡(长沙太平街店),太平街167号
湖南省,长沙市,星巴克咖啡(天虹广场店),芙蓉南路368号天虹超市1层(近味千拉面)
湖南省,长沙市,星巴克咖啡(雨花亭店),韶山中路421号凯德广场F1层
湖南省,长沙市,星巴克咖啡(长沙解放西路店),解放西路209号福达银座2层
湖南省,长沙市,星巴克咖啡(步步高店),金星中路428号步步高广场1层
湖南省,长沙市,星巴克咖啡(长沙通程店),枫林一路39号通程商业广场F1层
湖南省,长沙市,星巴克咖啡(长沙黄兴路步行街店),黄兴南路步行街东厢2号新天地大厦
湖南省,长沙市,星巴克咖啡(长沙亿万豪店),黄兴中路188号乐和城F1层L1-16-17
湖南省,长沙市,星巴克咖啡(平和堂店),韶山北路488号平和堂商场GF层
湖南省,长沙市,星巴克咖啡(长沙王府井店),黄兴中路35号王府井百货1层
陕西省,西安市,星巴克(华清广场店),雁塔路99号李家村十字东南角华清广场1层
陕西省,西安市,星巴克(高新大都荟店),高新区科技路305号
陕西省,西安市,星巴克咖啡(城市立方店),朱雀大街南段12号城市立方一楼
陕西省,西安市,星巴克咖啡(宏府大厦店),北大街118号宏府大厦A座2层
陕西省,西安市,星巴克咖啡(大融城店),凤城七路与未央路交叉口东北100米
陕西省,西安市,星巴克咖啡(首创禧悦里店),凤城十二路66号首创国际城A111
陕西省,西安市,星巴克(赛格店),长安中路123号赛格国际购物中心F1层
陕西省,西安市,星巴克咖啡(曲江创意谷店),雁翔路3369号创意谷广场1层
陕西省,西安市,星巴克咖啡(莱安逸珲店),大寨路6号莱安逸珲
陕西省,西安市,星巴克咖啡(华阳城店),长乐东路999号华阳城一层
陕西省,西安市,星巴克咖啡(兰岛广场店),科技六路4号兰岛广场一楼
陕西省,西安市,星巴克咖啡(泰华金贸国际店),沣惠南路16号泰华金贸国际JM街区
陕西省,西安市,星巴克咖啡(环普软件园店),天谷八路211号西安环普科技产业园
陕西省,西安市,星巴克(迈科中心店),西安迈科中心北门1层
陕西省,西安市,星巴克咖啡(卜蜂中心长和国际店),经开区凤城八路180号长和国际F座1层
陕西省,西安市,星巴克咖啡(金辉环球广场店),雁塔南路与共建路交汇处东北角金辉环球广场1层
陕西省,西安市,星巴克咖啡(威斯汀店),曲江新区慈恩路66号威斯汀酒店一楼东北角
陕西省,西安市,星巴克咖啡(民生百货店),未央路80号盛龙广场一楼
陕西省,西安市,星巴克咖啡(西安长安国际店),南关正街王府井百货中心广场2层平台
陕西省,西安市,星巴克咖啡(西安开元商城西旺店),西关正街57号西安开元商城1层
陕西省,西安市,星巴克(曲江龙湖星悦荟店),新开门北路888号龙湖星悦荟1层
陕西省,西安市,星巴克咖啡(万和城店),长缨西路1号万和城购物中心1层
陕西省,西安市,星巴克咖啡(老城根店),星火路22号老城根商业广场1层
陕西省,西安市,星巴克咖啡(盛龙商业广场店),未央路80号盛龙商业广场1层
陕西省,西安市,星巴克(汉神百货店),经济技术开发区凤城七路与文景路路口汉神百货1层
陕西省,西安市,星巴克(砂之船奥特莱斯店),砂之船奥莱
陕西省,西安市,星巴克(高新万达店),科技七路万达广场1层
陕西省,西安市,星巴克(高新光华路店),高新二路九号1幢1-1-4
陕西省,西安市,星巴克咖啡(群光广场店),东大街301号群光广场1层1D03单元
陕西省,西安市,星巴克咖啡(经发大厦店),未央大道132号经发大厦1层大堂
陕西省,西安市,星巴克咖啡(旺座现代城店),唐延路35号旺座现代城A座一层大厅
陕西省,西安市,星巴克咖啡(曲江金地广场店),曲江池东路999号金地广场1层F113单元
陕西省,西安市,星巴克咖啡(民生百货文景店),文景路116号民生百货(文景店)F1层
陕西省,西安市,星巴克咖啡(益田假日世界店),长乐西路166号益田假日世界购物中心1层
陕西省,西安市,星巴克咖啡(鑫苑大都汇店),丰禾路251号鑫苑大都汇购物中心1层
陕西省,西安市,星巴克咖啡,三桥新街1076号华润万象城内
陕西省,西安市,星巴克咖啡(大华1935店),太华南路251号大华1935商业艺术街区S1-2号
陕西省,西安市,星巴克咖啡(中大国际店),高新路72号中大国际1层
陕西省,西安市,星巴克咖啡(卜蜂店),凤城八路北侧渭滨路西卜蜂中心1层
陕西省,西安市,星巴克咖啡(长安大学城店),西长安街579号长安商贸中心三期地上1层
陕西省,西安市,星巴克(小寨百盛店),长安中路38号百盛2层
陕西省,西安市,星巴克咖啡(高新金鹰店),科技路37号高新金鹰国际购物中心1层
陕西省,西安市,星巴克(未央路王府井店),未央路170号王府井百货1层1F3号
陕西省,西安市,星巴克咖啡(西安新乐汇民生店),雁塔南路518号民生百货F1层
陕西省,西安市,星巴克咖啡(CITYON熙地港店),未央路EHB企业总部大厦1层
陕西省,西安市,星巴克咖啡(立丰国际店),金花南路58号立丰国际购物中心2层(近交大3村)
陕西省,西安市,星巴克咖啡(一品美道店),高新区高新路60乙号一品美道A区1层10110
陕西省,西安市,星巴克咖啡(兵马俑博物馆店),秦俑路1号兵马俑秦皇大剧院1层
陕西省,西安市,星巴克咖啡(西安子午路银泰店),小寨西路26号银泰城F1层
陕西省,西安市,星巴克咖啡(旗远锦上店),锦业路36号旗远锦上1层
陕西省,西安市,星巴克咖啡(西恩奥莱店),凤凰大道11号西恩奥特莱斯A区C4栋1-2层
陕西省,西安市,星巴克咖啡(印象城店),未央路33号西安未央印象城一层01-21单元
陕西省,西安市,星巴克咖啡(西安小寨金鹰店),长安中路99号长安文化综合大楼1F-B04单元小寨金鹰
陕西省,西安市,星巴克咖啡(阳光天地店),高新信息大道1号阳光天地广场1层
陕西省,西安市,星巴克咖啡(苏宁生活广场店),解放路186号苏宁生活广场(东新街)F1层
陕西省,西安市,星巴克咖啡(西安大唐西市店),劳动南路118号大唐西市1层
陕西省,西安市,星巴克咖啡(中贸广场),南关正街16号中贸广场F1层
陕西省,西安市,星巴克咖啡(唐市店),芙蓉西路99号大唐芙蓉园南门
陕西省,西安市,星巴克咖啡(西安北大街店),北大街88号宏府嘉会广场新世界百货1层
陕西省,西安市,星巴克咖啡(西安绿地乐和城店),二环南路东段绿地乐和城1层
陕西省,西安市,星巴克(大明宫万达店),太华北路369号大明宫万达广场1层
陕西省,西安市,星巴克咖啡(李家村万达店),雁塔路北段8号万达广场1层37号
陕西省,西安市,星巴克咖啡(高新易初莲花店),唐延路3号盛大时代广场1层
陕西省,西安市,星巴克咖啡(赛高金花店),北部经济技术开发区凤城五路与未央大道交叉处赛高国际金花百货1层
陕西省,西安市,星巴克咖啡(银泰国际购物中心),雁塔南路410号银泰百货F1层
陕西省,西安市,星巴克咖啡(西安太白印象城店),二环南路西段155号印象城F1层
陕西省,西安市,星巴克咖啡(金桥店),科技路50号金桥国际广场B座1层
陕西省,西安市,星巴克咖啡(西安万达店),解放路中段111号万达百货1层101
陕西省,西安市,星巴克咖啡(西安钟楼店),西大街1号
陕西省,西安市,星巴克咖啡(西安骡马市店),东大街骡马市1号民生百货(骡马市店)F1层
陕西省,西安市,星巴克咖啡(开元店),东大街解放市场6号开元商城B1层
陕西省,西安市,星巴克咖啡(西安高新金花店)(装修中),科技路33号世纪金花购物中心1层西门
陕西省,西安市,星巴克咖啡(伟业大厦店)(装修中),南广济街67号
